{"type":"FeatureCollection","features":[
{"type":"Feature","geometry":{"type":"Point","coordinates":[13.3354981,52.5250027]},"properties":{"@id":29040668,"@timestamp":1599431819,"amenity":"toilets","changing_table":"yes","description":"Berliner Toilette","fee":"yes","opening_hours":"24/7","operator":"Wall GmbH","payment:coins":"yes","payment:visa":"yes","toilets:disposal":"flush","toilets:wheelchair":"yes","unisex":"yes","wheelchair":"yes"}},
{"type":"Feature","geometry":{"type":"Point","coordinates":[13.334696,52.550683]},"properties":{"@id":36310181,"@timestamp":1255074157,"amenity":"toilets"}},
{"type":"Feature","geometry":{"type":"Point","coordinates":[13.4062859,52.518481]},"properties":{"@id":60240150,"@timestamp":1598516926,"amenity":"toilets","wheelchair":"yes"}},
{"type":"Feature","geometry":{"type":"Point","coordinates":[13.3738695,52.5175448]},"properties":{"@id":71180687,"@timestamp":1509311894,"fee":"yes","amenity":"toilets","wheelchair":"yes","toilets:wheelchair":"yes","wheelchair:description":"Euro-Schlüssel notwendig"}},
{"type":"Feature","geometry":{"type":"Point","coordinates":[13.3267121,52.5639385]},"properties":{"@id":76465610,"@timestamp":1606369436,"amenity":"toilets","changing_table":"yes","description":"Berliner Toilette","fee":"yes","opening_hours":"24/7","operator":"Wall GmbH","payment:coins":"yes","payment:visa":"yes","toilets:disposal":"flush","toilets:wheelchair":"yes","unisex":"yes","wheelchair":"yes"}},
{"type":"Feature","geometry":{"type":"Point","coordinates":[13.4003281,52.5220147]},"properties":{"@id":78252191,"@timestamp":1569764885,"fee":"yes","amenity":"toilets","operator":"Wall GmbH","centralkey":"eurokey","wheelchair":"yes","description":"City Toilette","opening_hours":"24/7","changing_table":"no","toilets:wheelchair":"yes","wheelchair:description":"Mit Euro-Schlüssel kostenlos, Toilette drehbar, 2x Haltestangen und Notruf vorhanden"}},
{"type":"Feature","geometry":{"type":"Point","coordinates":[13.2726603,52.5096592]},"properties":{"@id":81362621,"@timestamp":1514254415,"name":"Öffentliche Toiletten","access":"yes","unisex":"yes","amenity":"toilets","operator":"Wall AG","wheelchair":"no","opening_hours":"Mo-Su 08:00-20:00","toilets:wheelchair":"no","wheelchair:description":"Die Toiletten befinden sich im Untergrund und sind nur über Treppen zu erreichen!"}},
{"type":"Feature","geometry":{"type":"Point","coordinates":[13.3927835,52.5147116]},"properties":{"@id":86001818,"@timestamp":1495522471,"fee":"no","name":"Historische Toilette (Café Achteck)","access":"public","amenity":"toilets","wheelchair":"limited"}},
{"type":"Feature","geometry":{"type":"Point","coordinates":[13.2293179,52.447599]},"properties":{"@id":88456311,"@timestamp":1380050566,"amenity":"toilets","wheelchair":"no"}},
{"type":"Feature","geometry":{"type":"Point","coordinates":[13.4947109,52.6356675]},"properties":{"@id":97876682,"@timestamp":1511146383,"fee":"yes","name":"City Toilette","amenity":"toilets","operator":"Wall AG","centralkey":"eurokey","wheelchair":"yes","opening_hours":"24/7","toilets:wheelchair":"yes"}},
{"type":"Feature","geometry":{"type":"Point","coordinates":[13.5380407,52.5279505]},"properties":{"@id":151012608,"@timestamp":1451037632,"fee":"yes","name":"City Toilette","amenity":"toilets","operator":"Wall AG","centralkey":"eurokey","wheelchair":"yes"}},
{"type":"Feature","geometry":{"type":"Point","coordinates":[13.3781221,52.5289801]},"properties":{"@id":216261158,"@timestamp":1545774422,"fee":"yes","name":"City Toilette","amenity":"toilets","name:de":"City Toilette","website":"http://www.wall.de","operator":"Wall","addr:city":"Berlin","wheelchair":"yes","addr:street":"Platz vor dem Neuen Tor","addr:country":"DE","addr:postcode":"10115","contact:phone":"+49 30 338990","opening_hours":"24/7","contact:website":"http://www.wall.de","toilets:wheelchair":"yes"}},
{"type":"Feature","geometry":{"type":"Point","coordinates":[13.1772821,52.4395401]},"properties":{"@id":253775733,"@timestamp":1396120587,"amenity":"toilets","description":"WC"}},
{"type":"Feature","geometry":{"type":"Point","coordinates":[13.1773459,52.4373163]},"properties":{"@id":253775734,"@timestamp":1557318384,"name":"Toilette 4","unisex":"yes","amenity":"toilets","wheelchair":"no","description":"WC"}},
{"type":"Feature","geometry":{"type":"Point","coordinates":[13.1773664,52.4405511]},"properties":{"@id":253775735,"@timestamp":1396120587,"amenity":"toilets","description":"WC"}},
{"type":"Feature","geometry":{"type":"Point","coordinates":[13.464036,52.4702891]},"properties":{"@id":254863962,"@timestamp":1603441580,"amenity":"toilets","centralkey":"eurokey","changing_table":"yes","charge":"0.50 EUR","description":"Berliner Toilette","fee":"yes","fee:urinal":"no","note":"zusätzlich 2 frei zugängliche Urinale","opening_hours":"24/7","operator":"Wall GmbH","payment:cards":"yes","payment:cash":"yes","toilets:disposal":"flush","toilets:position":"seated;urinal","toilets:wheelchair":"yes","unisex":"yes","wheelchair":"yes"}},
{"type":"Feature","geometry":{"type":"Point","coordinates":[13.4643851,52.4874732]},"properties":{"@id":257372882,"@timestamp":1467382310,"fee":"yes","name":"City Toilette","amenity":"toilets","operator":"Wall","centralkey":"eurokey","wheelchair":"yes","opening_hours":"24/7","toilets:wheelchair":"yes"}},
{"type":"Feature","geometry":{"type":"Point","coordinates":[13.3633629,52.4811845]},"properties":{"@id":258604531,"@timestamp":1518510065,"fee":"no","male":"yes","name":"Historische Toilette (Café Achteck)","amenity":"toilets","ref:lda":"09066614","heritage":"4","wheelchair":"no","lda:criteria":"Baudenkmal","toilets:disposal":"flush","heritage:operator":"lda","toilets:wheelchair":"no"}},
{"type":"Feature","geometry":{"type":"Point","coordinates":[13.5663304,52.5699616]},"properties":{"@id":258889664,"@timestamp":1460567336,"fee":"yes","name":"City Toilette","source":"Wall AG Standortliste 8/2005","amenity":"toilets","operator":"Wall AG","centralkey":"eurokey","wheelchair":"yes","toilets:wheelchair":"yes"}},
{"type":"Feature","geometry":{"type":"Point","coordinates":[13.2056731,52.5414216]},"properties":{"@id":259606829,"@timestamp":1579099607,"amenity":"toilets","operator":"Wall GmbH","wheelchair":"yes","payment:visa":"yes","opening_hours":"24/7","contact:website":"http://www.wall.de","toilets:disposal":"flush","toilets:wheelchair":"yes"}},
{"type":"Feature","geometry":{"type":"Point","coordinates":[13.201168,52.5383167]},"properties":{"@id":259606898,"@timestamp":1602970055,"access":"yes","amenity":"toilets","centralkey":"eurokey","changing_table":"no","charge":"0.20 EUR","description":"Berliner Toilette","fee":"yes","level":"0","opening_hours":"24/7","operator":"Wall GmbH","toilets:disposal":"flush","toilets:handwashing":"yes","toilets:wheelchair":"yes","unisex":"yes","wheelchair":"yes","wheelchair:description":"2 Haltestangen und Notruf vorhanden!"}},
{"type":"Feature","geometry":{"type":"Point","coordinates":[13.3527148,52.484303]},"properties":{"@id":259983109,"@timestamp":1600608672,"amenity":"toilets","changing_table":"yes","description":"Berliner Toilette","fee":"yes","opening_hours":"24/7","operator":"Wall GmbH","payment:coins":"yes","payment:visa":"yes","toilets:disposal":"flush","toilets:wheelchair":"yes","unisex":"yes","wheelchair":"yes"}},
{"type":"Feature","geometry":{"type":"Point","coordinates":[13.5915624,52.5294173]},"properties":{"@id":264964211,"@timestamp":1579098748,"fee":"yes","amenity":"toilets","operator":"Wall GmbH","centralkey":"eurokey","wheelchair":"yes","payment:visa":"yes","toilets:disposal":"flush"}},
{"type":"Feature","geometry":{"type":"Point","coordinates":[13.4197605,52.4958545]},"properties":{"@id":268981842,"@timestamp":1606493764,"access":"yes","amenity":"toilets","centralkey":"eurokey","description":"Berliner Toilette","fee":"yes","fixme":"changing_table?","opening_hours":"24/7","operator":"Wall GmbH","toilets:disposal":"flush","toilets:position":"seated","toilets:wheelchair":"yes","unisex":"yes","wheelchair":"yes"}},
{"type":"Feature","geometry":{"type":"Point","coordinates":[13.1214072,52.4303983]},"properties":{"@id":271938947,"@timestamp":1424614835,"amenity":"toilets","wheelchair":"yes"}},
{"type":"Feature","geometry":{"type":"Point","coordinates":[13.2050138,52.5368873]},"properties":{"@id":278139236,"@timestamp":1451522469,"name":"Öffentliche Toilette","amenity":"toilets","wheelchair":"yes","contact:phone":"+49 800 0925524","contact:website":"http://www.wall.de","toilets:wheelchair":"yes","wheelchair:description":"Die Toilette befindet sich im Untergeschoss. Es ist aber ein Aufzug vorhanden."}},
{"type":"Feature","geometry":{"type":"Point","coordinates":[13.3431051,52.4389743]},"properties":{"@id":280441806,"@timestamp":1606376699,"amenity":"toilets","changing_table":"yes","description":"Berliner Toilette","fee":"yes","opening_hours":"24/7","operator":"Wall GmbH","payment:coins":"yes","payment:visa":"yes","toilets:disposal":"flush","toilets:wheelchair":"yes","unisex":"yes","wheelchair":"yes"}},
{"type":"Feature","geometry":{"type":"Point","coordinates":[13.2163673,52.4238362]},"properties":{"@id":286472700,"@timestamp":1555198944,"amenity":"toilets"}},
{"type":"Feature","geometry":{"type":"Point","coordinates":[13.343464,52.4786729]},"properties":{"@id":286618730,"@timestamp":1606376699,"amenity":"toilets","changing_table":"no","fee":"yes","level":"0","opening_hours":"24/7","operator":"Wall GmbH","phone":"+49 800 0925524","toilets:disposal":"flush","toilets:wheelchair":"yes","unisex":"yes","wheelchair":"yes","wheelchair:description":"eurokey needed"}},
{"type":"Feature","geometry":{"type":"Point","coordinates":[13.5138306,52.5172132]},"properties":{"@id":286976952,"@timestamp":1561894155,"fee":"no","amenity":"toilets","wheelchair":"no","changing_table":"no"}},
{"type":"Feature","geometry":{"type":"Point","coordinates":[13.5088114,52.5150386]},"properties":{"@id":286976954,"@timestamp":1606325126,"amenity":"toilets","changing_table":"yes","description":"Berliner Toilette","fee":"yes","opening_hours":"24/7","operator":"Wall GmbH","payment:coins":"yes","payment:visa":"yes","toilets:disposal":"flush","toilets:wheelchair":"yes","unisex":"yes","wheelchair":"yes"}},
{"type":"Feature","geometry":{"type":"Point","coordinates":[13.2855929,52.4982552]},"properties":{"@id":287525643,"@timestamp":1296832265,"amenity":"toilets"}},
{"type":"Feature","geometry":{"type":"Point","coordinates":[13.294005,52.5361522]},"properties":{"@id":287809080,"@timestamp":1465388674,"fee":"yes","name":"City Toilette","source":"http://www.berlin.de/ba-charlottenburg-wilmersdorf/bezirk/lexikon/toiletten.html","amenity":"toilets","operator":"Wall AG","centralkey":"eurokey","wheelchair":"yes","opening_hours":"24/7","toilets:wheelchair":"yes"}},
{"type":"Feature","geometry":{"type":"Point","coordinates":[13.4370659,52.5335657]},"properties":{"@id":288089949,"@timestamp":1470311880,"fee":"yes","name":"City Toilette","amenity":"toilets","operator":"Wall","centralkey":"eurokey","wheelchair":"yes","opening_hours":"24/7","toilets:wheelchair":"yes"}},
{"type":"Feature","geometry":{"type":"Point","coordinates":[13.4519985,52.4521725]},"properties":{"@id":289193076,"@timestamp":1504950596,"fee":"yes","name":"City Toilette","amenity":"toilets","operator":"Wall GmbH","centralkey":"eurokey","wheelchair":"yes","opening_hours":"24/7","toilets:wheelchair":"yes"}},
{"type":"Feature","geometry":{"type":"Point","coordinates":[13.1489751,52.452506]},"properties":{"@id":291412453,"@timestamp":1546090814,"fee":"yes","name":"City Toilette","unisex":"yes","amenity":"toilets","operator":"Wall GmbH","wheelchair":"yes","seamark:type":"small_craft_facility","opening_hours":"24/7","operator:type":"business","toilets:disposal":"flush","toilets:position":"seated;urinal","operator:wikidata":"Q1310189","operator:wikipedia":"de:Wall GmbH","toilets:wheelchair":"yes","seamark:small_craft_facility:category":"toilets"}},
{"type":"Feature","geometry":{"type":"Point","coordinates":[13.3536461,52.4948538]},"properties":{"@id":294583209,"@timestamp":1579099395,"fee":"yes","access":"yes","amenity":"toilets","operator":"Wall GmbH","centralkey":"eurokey","wheelchair":"yes","payment:visa":"yes","opening_hours":"24/7","toilets:disposal":"flush","toilets:wheelchair":"yes","wheelchair:description":"Mit Euro-Schlüssel kostenlos und Toilette drehbar. Die Benutzungszeit beträgt max. 40 Minuten. Haltestangen und Notruf vorhanden."}},
{"type":"Feature","geometry":{"type":"Point","coordinates":[13.4252972,52.4876265]},"properties":{"@id":294614943,"@timestamp":1579162236,"fee":"yes","amenity":"toilets","operator":"Wall GmbH","centralkey":"eurokey","wheelchair":"yes","description":"Berliner Toilette","payment:visa":"yes","toilets:disposal":"flush","toilets:wheelchair":"yes"}},
{"type":"Feature","geometry":{"type":"Point","coordinates":[13.3260671,52.4276629]},"properties":{"@id":296134228,"@timestamp":1586471056,"fee":"yes","unisex":"yes","amenity":"toilets","operator":"Wall GmbH","wheelchair":"yes","description":"Berliner Toilette","payment:visa":"yes","opening_hours":"24/7","payment:coins":"yes","changing_table":"yes","toilets:disposal":"flush","toilets:wheelchair":"yes"}},
{"type":"Feature","geometry":{"type":"Point","coordinates":[13.2586319,52.4027464]},"properties":{"@id":298063781,"@timestamp":1605451551,"amenity":"toilets","wheelchair":"yes"}},
{"type":"Feature","geometry":{"type":"Point","coordinates":[13.3855184,52.4845773]},"properties":{"@id":302805945,"@timestamp":1606376659,"amenity":"toilets","changing_table":"yes","description":"Berliner Toilette","fee":"yes","opening_hours":"24/7","operator":"Wall GmbH","payment:coins":"yes","payment:visa":"yes","toilets:disposal":"flush","toilets:wheelchair":"yes","unisex":"yes","wheelchair":"yes"}},
{"type":"Feature","geometry":{"type":"Point","coordinates":[13.3755165,52.5163697]},"properties":{"@id":304575905,"@timestamp":1543329746,"fee":"yes","name":"City Toilette","amenity":"toilets","wheelchair":"yes","opening_hours":"24/7","toilets:wheelchair":"yes"}},
{"type":"Feature","geometry":{"type":"Point","coordinates":[13.2276307,52.5064355]},"properties":{"@id":308003239,"@timestamp":1508828852,"amenity":"toilets","wheelchair":"no"}},
{"type":"Feature","geometry":{"type":"Point","coordinates":[13.4133882,52.5506781]},"properties":{"@id":308809962,"@timestamp":1568409859,"fee":"yes","access":"yes","unisex":"yes","amenity":"toilets","operator":"Wall GmbH","centralkey":"eurokey","wheelchair":"yes","payment:app":"yes","payment:visa":"yes","opening_hours":"24/7","payment:coins":"yes","changing_table":"yes","toilets:disposal":"flush","toilets:wheelchair":"yes","wheelchair:description":"Mit Euro-Schlüssel kostenlos. Benutzungszeit max. 40 Minuten. Notruf und Haltestangen vorhanden."}},
{"type":"Feature","geometry":{"type":"Point","coordinates":[13.3048503,52.4176322]},"properties":{"@id":309334321,"@timestamp":1579098748,"fee":"yes","unisex":"yes","amenity":"toilets","operator":"Wall GmbH","wheelchair":"yes","description":"Berliner Toilette","payment:visa":"yes","payment:coins":"yes","changing_table":"yes","toilets:disposal":"flush","toilets:wheelchair":"yes"}},
{"type":"Feature","geometry":{"type":"Point","coordinates":[13.3250857,52.4940235]},"properties":{"@id":309363218,"@timestamp":1579099607,"fee":"yes","amenity":"toilets","operator":"Wall GmbH","centralkey":"eurokey","wheelchair":"yes","payment:visa":"yes","opening_hours":"24/7","toilets:disposal":"flush","toilets:wheelchair":"yes"}},
{"type":"Feature","geometry":{"type":"Point","coordinates":[13.3174167,52.5015328]},"properties":{"@id":309371016,"@timestamp":1579099395,"fee":"yes","amenity":"toilets","operator":"Wall GmbH","addr:city":"Berlin","centralkey":"eurokey","wheelchair":"yes","addr:street":"Kurfürstendamm","addr:country":"DE","payment:visa":"yes","addr:postcode":"10707","opening_hours":"24/7","toilets:disposal":"flush","toilets:wheelchair":"yes"}},
{"type":"Feature","geometry":{"type":"Point","coordinates":[13.4273379,52.5458554]},"properties":{"@id":310022911,"@timestamp":1467629491,"fee":"yes","name":"City Toilette","amenity":"toilets","operator":"Wall","centralkey":"eurokey","wheelchair":"yes","opening_hours":"24/7","toilets:wheelchair":"yes"}},
{"type":"Feature","geometry":{"type":"Point","coordinates":[13.4120097,52.5430089]},"properties":{"@id":310354965,"@timestamp":1590516197,"fee":"yes","name":"City Toilette","amenity":"toilets","operator":"Wall GmbH","centralkey":"eurokey","fee:urinal":"no","wheelchair":"yes","opening_hours":"24/7","toilets:position":"seated;urinal","toilets:wheelchair":"yes"}},
{"type":"Feature","geometry":{"type":"Point","coordinates":[13.2724686,52.5891475]},"properties":{"@id":310570379,"@timestamp":1598338042,"access":"yes","amenity":"toilets","count":"2","fee":"yes","name":"City Toilette","seamark:small_craft_facility:category":"toilets","seamark:type":"small_craft_facility","toilets:disposal":"flush","unisex":"yes","wheelchair":"yes"}},
{"type":"Feature","geometry":{"type":"Point","coordinates":[13.282889,52.5898825]},"properties":{"@id":310612133,"@timestamp":1515777556,"fee":"yes","name":"City Toilette","phone":"+49 800 0925524","amenity":"toilets","website":"http://www.wall.de","operator":"Wall AG","centralkey":"eurokey","wheelchair":"yes","opening_hours":"24/7","toilets:wheelchair":"yes"}},
{"type":"Feature","geometry":{"type":"Point","coordinates":[13.3308577,52.5034474]},"properties":{"@id":310665969,"@timestamp":1564559611,"access":"yes","amenity":"toilets","wheelchair":"no"}},
{"type":"Feature","geometry":{"type":"Point","coordinates":[13.3094569,52.4308672]},"properties":{"@id":311644392,"@timestamp":1579098748,"fee":"yes","unisex":"yes","amenity":"toilets","operator":"Wall GmbH","wheelchair":"yes","description":"Berliner Toilette","payment:visa":"yes","payment:coins":"yes","changing_table":"yes","toilets:disposal":"flush","toilets:wheelchair":"yes"}},
{"type":"Feature","geometry":{"type":"Point","coordinates":[13.4610798,52.5199502]},"properties":{"@id":312476072,"@timestamp":1598021162,"amenity":"toilets","changing_table":"yes","description":"Berliner Toilette","fee":"yes","opening_hours":"24/7","operator":"Wall GmbH","payment:coins":"yes","payment:visa":"yes","toilets:disposal":"flush","toilets:wheelchair":"yes","unisex":"yes","wheelchair":"yes"}},
{"type":"Feature","geometry":{"type":"Point","coordinates":[13.2311127,52.5252987]},"properties":{"@id":315896534,"@timestamp":1228073206,"amenity":"toilets"}},
{"type":"Feature","geometry":{"type":"Point","coordinates":[13.3586017,52.5469956]},"properties":{"@id":317179422,"@timestamp":1505568952,"fee":"yes","name":"City Toilette","amenity":"toilets","operator":"Wall AG","centralkey":"eurokey","wheelchair":"yes","toilets:wheelchair":"yes"}},
{"type":"Feature","geometry":{"type":"Point","coordinates":[13.2537845,52.5853683]},"properties":{"@id":322867182,"@timestamp":1606376806,"access":"yes","amenity":"toilets","changing_table":"no","fee":"no","female":"yes","male":"yes","opening_hours":"24/7","operator":"Berliner Forsten","toilets:disposal":"flush","toilets:position":"seated;urinal","wheelchair":"no"}},
{"type":"Feature","geometry":{"type":"Point","coordinates":[13.4136041,52.5598709]},"properties":{"@id":333944057,"@timestamp":1599431959,"amenity":"toilets","changing_table":"yes","description":"Berliner Toilette","fee":"yes","opening_hours":"24/7","operator":"Wall GmbH","payment:coins":"yes","payment:visa":"yes","toilets:disposal":"flush","toilets:wheelchair":"yes","unisex":"yes","wheelchair":"yes"}},
{"type":"Feature","geometry":{"type":"Point","coordinates":[13.4170063,52.5356409]},"properties":{"@id":337223385,"@timestamp":1579099607,"fee":"yes","unisex":"yes","amenity":"toilets","operator":"Wall GmbH","centralkey":"eurokey","wheelchair":"yes","payment:visa":"yes","opening_hours":"24/7","toilets:wheelchair":"yes"}},
{"type":"Feature","geometry":{"type":"Point","coordinates":[13.4054077,52.5467554]},"properties":{"@id":337223695,"@timestamp":1523223341,"fee":"yes","name":"City Toilette","amenity":"toilets","operator":"Wall GmbH","centralkey":"eurokey","wheelchair":"yes","opening_hours":"24/7","toilets:wheelchair":"yes"}},
{"type":"Feature","geometry":{"type":"Point","coordinates":[13.3779912,52.5505584]},"properties":{"@id":343401150,"@timestamp":1471015102,"fee":"yes","name":"City Toilette","amenity":"toilets","operator":"Wall","wheelchair":"yes","opening_hours":"24/7","toilets:wheelchair":"yes"}},
{"type":"Feature","geometry":{"type":"Point","coordinates":[13.5138448,52.4646681]},"properties":{"@id":345555787,"@timestamp":1579098748,"fee":"yes","unisex":"yes","amenity":"toilets","operator":"Wall GmbH","wheelchair":"yes","description":"Berliner Toilette","payment:visa":"yes","payment:coins":"yes","changing_table":"yes","toilets:disposal":"flush","toilets:wheelchair":"yes"}},
{"type":"Feature","geometry":{"type":"Point","coordinates":[13.3120206,52.442552]},"properties":{"@id":347422928,"@timestamp":1259402457,"amenity":"toilets"}},
{"type":"Feature","geometry":{"type":"Point","coordinates":[13.3027878,52.5053322]},"properties":{"@id":349011829,"@timestamp":1550235731,"fee":"yes","name":"City Toilette","amenity":"toilets","operator":"Wall AG","addr:city":"Berlin","centralkey":"eurokey","wheelchair":"yes","addr:street":"Stuttgarter Platz","addr:country":"DE","addr:postcode":"10627","contact:phone":"+49 30 338990","opening_hours":"24/7","contact:website":"http://www.wall.de","toilets:wheelchair":"yes"}},
{"type":"Feature","geometry":{"type":"Point","coordinates":[13.3909001,52.488556]},"properties":{"@id":353202022,"@timestamp":1594960503,"fee":"no","name":"Historische Toilette (Café Achteck)","amenity":"toilets","wheelchair":"yes"}},
{"type":"Feature","geometry":{"type":"Point","coordinates":[13.3984926,52.3865252]},"properties":{"@id":364123000,"@timestamp":1585035339,"fee":"yes","name":"City Toilette","unisex":"yes","amenity":"toilets","operator":"Wall GmbH","centralkey":"eurokey","wheelchair":"yes","description":"hat 2 frei zugängliche Pissoirs","opening_hours":"24/7","changing_table":"no","toilets:wheelchair":"yes"}},
{"type":"Feature","geometry":{"type":"Point","coordinates":[13.4389,52.4737166]},"properties":{"@id":365365513,"@timestamp":1474995046,"fee":"yes","name":"City Toilette","amenity":"toilets","operator":"Wall AG","centralkey":"eurokey","wheelchair":"yes","opening_hours":"24/7","toilets:wheelchair":"yes"}},
{"type":"Feature","geometry":{"type":"Point","coordinates":[13.3305814,52.5273789]},"properties":{"@id":365605621,"@timestamp":1579098748,"fee":"yes","unisex":"yes","amenity":"toilets","operator":"Wall GmbH","wheelchair":"yes","description":"Berliner Toilette","payment:visa":"yes","payment:coins":"yes","changing_table":"yes","toilets:disposal":"flush","toilets:wheelchair":"yes"}},
{"type":"Feature","geometry":{"type":"Point","coordinates":[13.3631454,52.413518]},"properties":{"@id":371097628,"@timestamp":1579098748,"fee":"yes","unisex":"yes","amenity":"toilets","operator":"Wall GmbH","wheelchair":"yes","description":"Berliner Toilette","payment:visa":"yes","payment:coins":"yes","changing_table":"yes","toilets:disposal":"flush","toilets:wheelchair":"yes"}},
{"type":"Feature","geometry":{"type":"Point","coordinates":[13.3325879,52.5072038]},"properties":{"@id":375879906,"@timestamp":1537102341,"fee":"yes","amenity":"toilets","operator":"Sanifair","wheelchair":"no","description":"Öffentliche Toilette","toilets:wheelchair":"no","wheelchair:description":"Zu den Toiletten führen nur Stufen nach unten!"}},
{"type":"Feature","geometry":{"type":"Point","coordinates":[13.3567345,52.5163479]},"properties":{"@id":377120370,"@timestamp":1599431870,"access":"yes","amenity":"toilets","changing_table":"no","drinking_water":"no","fee":"no","female":"yes","male":"yes","opening_hours":"24/7","water_supply":"no","wheelchair":"no"}},
{"type":"Feature","geometry":{"type":"Point","coordinates":[13.4128969,52.5324508]},"properties":{"@id":377675091,"@timestamp":1606324894,"access":"yes","amenity":"toilets","changing_table":"no","description":"Pissoir","fee":"no","female":"no","historic":"yes","male":"yes","name":"Historische Toilette (Café Achteck)","wheelchair":"no"}},
{"type":"Feature","geometry":{"type":"Point","coordinates":[13.5801517,52.4588404]},"properties":{"@id":388125800,"@timestamp":1597215016,"fee":"yes","unisex":"yes","amenity":"toilets","operator":"Wall GmbH","wheelchair":"yes","description":"Berliner Toilette","payment:visa":"yes","opening_hours":"24/7","payment:coins":"yes","changing_table":"yes","toilets:disposal":"flush","toilets:wheelchair":"yes"}},
{"type":"Feature","geometry":{"type":"Point","coordinates":[13.4086361,52.4326]},"properties":{"@id":390428248,"@timestamp":1532266534,"amenity":"toilets"}},
{"type":"Feature","geometry":{"type":"Point","coordinates":[13.306683,52.5078805]},"properties":{"@id":401552930,"@timestamp":1594515545,"fee":"yes","access":"yes","unisex":"yes","amenity":"toilets","operator":"Wall GmbH","wheelchair":"yes","description":"Berliner Toilette","payment:visa":"yes","opening_hours":"24/7","payment:coins":"yes","changing_table":"yes","toilets:disposal":"flush","toilets:wheelchair":"yes"}},
{"type":"Feature","geometry":{"type":"Point","coordinates":[13.560903,52.5059444]},"properties":{"@id":405040172,"@timestamp":1583586355,"fee":"yes","name":"City Toilette","amenity":"toilets","operator":"Wall AG","centralkey":"eurokey","wheelchair":"yes","changing_table":"no","toilets:wheelchair":"yes"}},
{"type":"Feature","geometry":{"type":"Point","coordinates":[13.3527277,52.5444528]},"properties":{"@id":408469307,"@timestamp":1296855957,"name":"Damen WC","amenity":"toilets","location":"1.OG","wheelchair":"limited"}},
{"type":"Feature","geometry":{"type":"Point","coordinates":[13.3527791,52.5444267]},"properties":{"@id":408469602,"@timestamp":1303385120,"name":"Herren WC","amenity":"toilets","location":"1.OG","wheelchair":"yes"}},
{"type":"Feature","geometry":{"type":"Point","coordinates":[13.338881,52.509534]},"properties":{"@id":413653260,"@timestamp":1573387950,"fee":"yes","amenity":"toilets","wheelchair":"yes","changing_table":"yes"}},
{"type":"Feature","geometry":{"type":"Point","coordinates":[13.3379653,52.5069243]},"properties":{"@id":413653263,"@timestamp":1370293967,"name":"Öffentliche Toilette","amenity":"toilets","wheelchair":"no"}},
{"type":"Feature","geometry":{"type":"Point","coordinates":[13.3420774,52.5068545]},"properties":{"@id":413653264,"@timestamp":1298601598,"amenity":"toilets","wheelchair":"yes"}},
{"type":"Feature","geometry":{"type":"Point","coordinates":[13.4735536,52.4231802]},"properties":{"@id":416821723,"@timestamp":1450988283,"fee":"yes","name":"City Toilette","amenity":"toilets","operator":"Wall AG","centralkey":"eurokey","wheelchair":"yes"}},
{"type":"Feature","geometry":{"type":"Point","coordinates":[13.3366833,52.5126724]},"properties":{"@id":419275395,"@timestamp":1514370823,"fee":"no","male":"yes","female":"yes","amenity":"toilets","wheelchair":"no","description":"Toilettencontainer","toilets:wheelchair":"no"}},
{"type":"Feature","geometry":{"type":"Point","coordinates":[13.3427061,52.5024723]},"properties":{"@id":426687394,"@timestamp":1529249594,"fee":"yes","name":"City Toilette","phone":"+49 800 0925524","amenity":"toilets","website":"http://www.wall.de","operator":"Wall","addr:city":"Berlin","centralkey":"eurokey","wheelchair":"yes","addr:street":"Wittenbergplatz","addr:postcode":"10789","opening_hours":"24/7","toilets:wheelchair":"yes"}},
{"type":"Feature","geometry":{"type":"Point","coordinates":[13.4839872,52.5030205]},"properties":{"@id":429461039,"@timestamp":1579098748,"fee":"yes","unisex":"yes","amenity":"toilets","operator":"Wall GmbH","wheelchair":"yes","description":"Berliner Toilette","payment:visa":"yes","payment:coins":"yes","changing_table":"yes","toilets:disposal":"flush","toilets:wheelchair":"yes"}},
{"type":"Feature","geometry":{"type":"Point","coordinates":[13.5742474,52.41368]},"properties":{"@id":429578416,"@timestamp":1606325198,"amenity":"toilets","changing_table":"yes","description":"Berliner Toilette","fee":"yes","opening_hours":"24/7","operator":"Wall GmbH","payment:coins":"yes","payment:visa":"yes","toilets:disposal":"flush","toilets:wheelchair":"yes","unisex":"yes","wheelchair":"yes"}},
{"type":"Feature","geometry":{"type":"Point","coordinates":[13.4129688,52.5214626]},"properties":{"@id":437290305,"@timestamp":1527340605,"fee":"yes","name":"City Toilette","charge":"0.5 EUR","amenity":"toilets","operator":"Wall AG","centralkey":"eurokey","wheelchair":"yes","toilets:wheelchair":"yes"}},
{"type":"Feature","geometry":{"type":"Point","coordinates":[13.6243842,52.4505912]},"properties":{"@id":439239170,"@timestamp":1535038998,"fee":"no","access":"yes","unisex":"yes","amenity":"toilets","operator":"Wall AG","wheelchair":"yes","toilets:wheelchair":"yes"}},
{"type":"Feature","geometry":{"type":"Point","coordinates":[13.5444405,52.4623565]},"properties":{"@id":441257129,"@timestamp":1480750576,"access":"customers","amenity":"toilets","operator":"Kindl-Bühne Wuhlheide","wheelchair":"no"}},
{"type":"Feature","geometry":{"type":"Point","coordinates":[13.5464636,52.4622142]},"properties":{"@id":441257192,"@timestamp":1480750576,"access":"customers","amenity":"toilets","operator":"Kindl-Bühne Wuhlheide","wheelchair":"no"}},
{"type":"Feature","geometry":{"type":"Point","coordinates":[13.5464644,52.4626505]},"properties":{"@id":441257332,"@timestamp":1527456242,"access":"customers","amenity":"toilets","operator":"Kindl-Bühne Wuhlheide","wheelchair":"no"}},
{"type":"Feature","geometry":{"type":"Point","coordinates":[13.385754499999999,52.4443937]},"properties":{"@id":442394347,"@timestamp":1495834855,"fee":"yes","name":"City Toilete","amenity":"toilets","operator":"Wall AG","centralkey":"eurokey","wheelchair":"yes","opening_hours":"24/7","toilets:wheelchair":"yes"}},
{"type":"Feature","geometry":{"type":"Point","coordinates":[13.4368367,52.4661592]},"properties":{"@id":442397976,"@timestamp":1569183736,"fee":"yes","name":"City Toilette","amenity":"toilets","operator":"Wall GmbH","centralkey":"eurokey","wheelchair":"yes","opening_hours":"24/7","toilets:wheelchair":"yes"}},
{"type":"Feature","geometry":{"type":"Point","coordinates":[13.4706905,52.5309956]},"properties":{"@id":448443039,"@timestamp":1451128442,"fee":"yes","male":"yes","name":"City Toilette","female":"yes","amenity":"toilets","operator":"Wall AG","centralkey":"eurokey","wheelchair":"yes"}},
{"type":"Feature","geometry":{"type":"Point","coordinates":[13.4415005,52.4716468]},"properties":{"@id":448809595,"@timestamp":1601288122,"amenity":"toilets","centralkey":"eurokey","changing_table":"no","fee":"yes","name":"Historische Toilette","operator":"Wall AG","toilets:position":"urinal","wheelchair":"no"}},
{"type":"Feature","geometry":{"type":"Point","coordinates":[13.2661016,52.4718361]},"properties":{"@id":449372452,"@timestamp":1598822729,"access":"yes","amenity":"toilets","changing_table":"no","drinking_water":"no","fee":"no","female":"yes","male":"yes","opening_hours":"24/7","operator":"public","water_supply":"no","wheelchair":"no"}},
{"type":"Feature","geometry":{"type":"Point","coordinates":[13.2373146,52.5618444]},"properties":{"@id":450573181,"@timestamp":1460011409,"amenity":"toilets","seamark:type":"small_craft_facility","seamark:small_craft_facility:category":"toilets"}},
{"type":"Feature","geometry":{"type":"Point","coordinates":[13.240167,52.442337]},"properties":{"@id":451759262,"@timestamp":1598822729,"amenity":"toilets","changing_table":"yes","fee":"yes","opening_hours":"24/7","operator":"Wall GmbH","payment:coins":"yes","payment:visa":"yes","toilets:disposal":"flush","toilets:wheelchair":"yes","unisex":"yes","wheelchair":"yes"}},
{"type":"Feature","geometry":{"type":"Point","coordinates":[13.4454327,52.4740614]},"properties":{"@id":459280620,"@timestamp":1601288122,"amenity":"toilets","changing_table":"yes","description":"Berliner Toilette","fee":"yes","opening_hours":"24/7","operator":"Wall GmbH","payment:coins":"yes","payment:visa":"yes","toilets:disposal":"flush","toilets:wheelchair":"yes","unisex":"yes","wheelchair":"yes"}},
{"type":"Feature","geometry":{"type":"Point","coordinates":[13.419243,52.4333412]},"properties":{"@id":469165335,"@timestamp":1532266534,"fee":"no","amenity":"toilets","wheelchair":"yes"}},
{"type":"Feature","geometry":{"type":"Point","coordinates":[13.1814906,52.469885]},"properties":{"@id":477427675,"@timestamp":1374498814,"fee":"no","amenity":"toilets","wheelchair":"no"}},
{"type":"Feature","geometry":{"type":"Point","coordinates":[13.374294,52.5055413]},"properties":{"@id":477529798,"@timestamp":1559739710,"fee":"yes","name":"City Toilette","amenity":"toilets","operator":"Wall","addr:city":"Berlin","wheelchair":"yes","addr:street":"Linkstraße","addr:postcode":"10785","opening_hours":"24/7","addr:housenumber":"10","toilets:wheelchair":"yes","wheelchair:description":"2 Toiletten vorhanden. Mit Euro-Schlüssel kostenlos."}},
{"type":"Feature","geometry":{"type":"Point","coordinates":[13.4303336,52.5000023]},"properties":{"@id":477532020,"@timestamp":1601973780,"amenity":"toilets","fee":"yes","female":"yes","male":"yes","name":"City Toilette","operator":"Wall","wheelchair":"yes"}},
{"type":"Feature","geometry":{"type":"Point","coordinates":[13.5272161,52.4989912]},"properties":{"@id":480350451,"@timestamp":1596633882,"fee":"no","unisex":"yes","amenity":"toilets","wheelchair":"yes","changing_table":"yes","toilets:disposal":"flush"}},
{"type":"Feature","geometry":{"type":"Point","coordinates":[13.5326143,52.5016278]},"properties":{"@id":480350456,"@timestamp":1568898794,"fee":"no","male":"yes","access":"yes","female":"yes","unisex":"no","amenity":"toilets","wheelchair":"yes","changing_table":"yes","drinking_water":"yes","toilets:disposal":"flush","toilets:position":"seated;urinal","changing_table:count":"2","changing_table:location":"dedicated_room"}},
{"type":"Feature","geometry":{"type":"Point","coordinates":[13.5293754,52.5047637]},"properties":{"@id":480350458,"@timestamp":1596633882,"fee":"no","amenity":"toilets","wheelchair":"no","changing_table":"yes","drinking_water":"yes","toilets:disposal":"flush","toilets:position":"seated;urinal","changing_table:location":"female_toilet"}},
{"type":"Feature","geometry":{"type":"Point","coordinates":[13.5321081,52.5077371]},"properties":{"@id":480350479,"@timestamp":1435299254,"amenity":"toilets","wheelchair":"yes"}},
{"type":"Feature","geometry":{"type":"Point","coordinates":[13.4419408,52.5212353]},"properties":{"@id":487067546,"@timestamp":1252305229,"amenity":"toilets","wheelchair":"yes"}},
{"type":"Feature","geometry":{"type":"Point","coordinates":[13.2346278,52.4895696]},"properties":{"@id":490178984,"@timestamp":1252444975,"amenity":"toilets"}},
{"type":"Feature","geometry":{"type":"Point","coordinates":[13.302032,52.4555883]},"properties":{"@id":503360841,"@timestamp":1601237998,"amenity":"toilets","disused":"yes","female":"yes"}},
{"type":"Feature","geometry":{"type":"Point","coordinates":[13.3031103,52.4526043]},"properties":{"@id":503360880,"@timestamp":1577656437,"female":"yes","amenity":"toilets"}},
{"type":"Feature","geometry":{"type":"Point","coordinates":[13.1293572,52.4293287]},"properties":{"@id":506836884,"@timestamp":1363994033,"fee":"no","amenity":"toilets","wheelchair":"no"}},
{"type":"Feature","geometry":{"type":"Point","coordinates":[13.143145,52.4324459]},"properties":{"@id":506836885,"@timestamp":1363994044,"fee":"no","amenity":"toilets","wheelchair":"no"}},
{"type":"Feature","geometry":{"type":"Point","coordinates":[13.4572669,52.490337]},"properties":{"@id":515660597,"@timestamp":1592855234,"fee":"no","amenity":"toilets","wheelchair":"yes","changing_table":"yes"}},
{"type":"Feature","geometry":{"type":"Point","coordinates":[13.3338128,52.5051529]},"properties":{"@id":520248239,"@timestamp":1498922618,"male":"designated","name":"City Pissoir","female":"no","amenity":"toilets","operator":"Wall","wheelchair":"no","description":"nur Pissoir","opening_hours":"24/7","toilets:position":"urinal","toilets:wheelchair":"no","wheelchair:description":"Nur für Männer geeignet!"}},
{"type":"Feature","geometry":{"type":"Point","coordinates":[13.4768635,52.5131604]},"properties":{"@id":530510700,"@timestamp":1599552766,"access":"yes","amenity":"toilets","changing_table":"yes","description":"Berliner Toilette","fee":"yes","opening_hours":"24/7","operator":"Wall GmbH","payment:coins":"yes","payment:contactless":"yes","payment:visa":"yes","toilets:disposal":"flush","toilets:wheelchair":"yes","unisex":"yes","wheelchair":"yes"}},
{"type":"Feature","geometry":{"type":"Point","coordinates":[13.5264868,52.4688798]},"properties":{"@id":539477774,"@timestamp":1256391412,"amenity":"toilets","operator":"Modellpark Berlin-Brandenburg"}},
{"type":"Feature","geometry":{"type":"Point","coordinates":[13.1631658,52.5213231]},"properties":{"@id":539506614,"@timestamp":1551417713,"fee":"no","amenity":"toilets","wheelchair":"yes","toilets:wheelchair":"yes","wheelchair:description":"Die Behindertentoilette lässt sich nur mit dem Euro-Schlüssel öffnen"}},
{"type":"Feature","geometry":{"type":"Point","coordinates":[13.3366834,52.5331964]},"properties":{"@id":558361430,"@timestamp":1584818423,"fee":"no","note":"Café Achteck","amenity":"toilets","wheelchair":"no","changing_table":"no"}},
{"type":"Feature","geometry":{"type":"Point","coordinates":[13.2536585,52.5122982]},"properties":{"@id":559576305,"@timestamp":1257698102,"amenity":"toilets"}},
{"type":"Feature","geometry":{"type":"Point","coordinates":[13.6010557,52.5358298]},"properties":{"@id":559615852,"@timestamp":1450988289,"fee":"yes","name":"City Toilette","amenity":"toilets","operator":"Wall AG","centralkey":"eurokey","wheelchair":"yes"}},
{"type":"Feature","geometry":{"type":"Point","coordinates":[13.526667,52.4585955]},"properties":{"@id":567869854,"@timestamp":1579098748,"fee":"yes","unisex":"yes","amenity":"toilets","operator":"Wall GmbH","wheelchair":"yes","description":"Berliner Toilette","payment:visa":"yes","payment:coins":"yes","changing_table":"yes","toilets:disposal":"flush","toilets:wheelchair":"yes"}},
{"type":"Feature","geometry":{"type":"Point","coordinates":[13.4795728,52.5189878]},"properties":{"@id":582889347,"@timestamp":1556964624,"fee":"yes","name":"City Toilette","access":"yes","unisex":"yes","amenity":"toilets","operator":"Wall AG","addr:city":"Berlin","centralkey":"eurokey","wheelchair":"yes","addr:street":"Kielblockstraße","addr:postcode":"10367","opening_hours":"24/7","addr:housenumber":"1","toilets:wheelchair":"yes"}},
{"type":"Feature","geometry":{"type":"Point","coordinates":[13.4662475,52.552599]},"properties":{"@id":588548879,"@timestamp":1464368382,"name":"City Toilette","amenity":"toilets","wheelchair":"yes","opening_hours":"24/7","toilets:wheelchair":"yes"}},
{"type":"Feature","geometry":{"type":"Point","coordinates":[13.3429206,52.4506928]},"properties":{"@id":602941961,"@timestamp":1585787513,"fax":"+49 30 33899295","fee":"yes","note":"Mit Euro-Schlüssel kostenlos","email":"info@wall.de","level":"0","phone":"+49 800 0925524","access":"yes","unisex":"yes","amenity":"toilets","website":"http://www.wall.de","operator":"Wall GmbH","wikidata":"Q1310189","addr:city":"Berlin","wikipedia":"de:Wall GmbH","wheelchair":"yes","addr:street":"Immenweg","addr:postcode":"12169","opening_hours":"Mo-Su 00:00-24:00","changing_table":"no","addr:housenumber":"31","toilets:disposal":"flush","toilets:wheelchair":"yes"}},
{"type":"Feature","geometry":{"type":"Point","coordinates":[13.3776915,52.4639297]},"properties":{"@id":603045622,"@timestamp":1607864852,"amenity":"toilets","fee":"yes","name":"City Toilette","wheelchair":"yes"}},
{"type":"Feature","geometry":{"type":"Point","coordinates":[13.3710834,52.4225451]},"properties":{"@id":603054378,"@timestamp":1579099607,"fee":"yes","amenity":"toilets","operator":"Wall GmbH","wheelchair":"yes","payment:visa":"yes","opening_hours":"24/7","toilets:wheelchair":"yes"}},
{"type":"Feature","geometry":{"type":"Point","coordinates":[13.4101494,52.3877772]},"properties":{"@id":603054379,"@timestamp":1579098748,"fee":"yes","unisex":"yes","amenity":"toilets","operator":"Wall GmbH","wheelchair":"yes","description":"Berliner Toilette","payment:visa":"yes","payment:coins":"yes","changing_table":"yes","toilets:disposal":"flush","toilets:wheelchair":"yes"}},
{"type":"Feature","geometry":{"type":"Point","coordinates":[13.3275441,52.4864199]},"properties":{"@id":606334104,"@timestamp":1508574854,"fee":"yes","name":"City Toilette","amenity":"toilets","operator":"Wall","centralkey":"eurokey","wheelchair":"yes","opening_hours":"24/7","toilets:wheelchair":"yes"}},
{"type":"Feature","geometry":{"type":"Point","coordinates":[13.3086409,52.467208]},"properties":{"@id":606342979,"@timestamp":1579098748,"fee":"yes","unisex":"yes","amenity":"toilets","operator":"Wall GmbH","wheelchair":"yes","description":"Berliner Toilette","payment:visa":"yes","payment:coins":"yes","changing_table":"yes","toilets:disposal":"flush","toilets:wheelchair":"yes"}},
{"type":"Feature","geometry":{"type":"Point","coordinates":[13.309243,52.473332]},"properties":{"@id":606342985,"@timestamp":1579098748,"fee":"yes","unisex":"yes","amenity":"toilets","operator":"Wall GmbH","wheelchair":"yes","description":"Berliner Toilette","payment:visa":"yes","payment:coins":"yes","changing_table":"yes","toilets:disposal":"flush","toilets:wheelchair":"yes"}},
{"type":"Feature","geometry":{"type":"Point","coordinates":[13.281608,52.4766248]},"properties":{"@id":606347837,"@timestamp":1579096193,"fee":"yes","name":"Berliner Toilette","unisex":"yes","amenity":"toilets","operator":"Wall GmbH","wheelchair":"yes","description":"Berliner Toilette","payment:visa":"yes","payment:coins":"yes","changing_table":"yes","toilets:disposal":"flush","toilets:wheelchair":"yes"}},
{"type":"Feature","geometry":{"type":"Point","coordinates":[13.2903586,52.5188014]},"properties":{"@id":606347840,"@timestamp":1549207099,"fee":"yes","name":"City Toilette","amenity":"toilets","operator":"Wall AG","centralkey":"eurokey","wheelchair":"yes","toilets:wheelchair":"yes"}},
{"type":"Feature","geometry":{"type":"Point","coordinates":[13.2600638,52.5160084]},"properties":{"@id":606355966,"@timestamp":1579096193,"fee":"yes","name":"Berliner Toilette","unisex":"yes","amenity":"toilets","operator":"Wall GmbH","wheelchair":"yes","description":"Berliner Toilette","payment:visa":"yes","payment:coins":"yes","changing_table":"yes","toilets:disposal":"flush","toilets:wheelchair":"yes"}},
{"type":"Feature","geometry":{"type":"Point","coordinates":[13.4473169,52.5114889]},"properties":{"@id":606361933,"@timestamp":1599432031,"amenity":"toilets","changing_table":"no","fee":"yes","name":"City Toilette","name:de":"City Toilette","opening_hours":"24/7","operator":"Wall","toilets:wheelchair":"yes","wheelchair":"yes"}},
{"type":"Feature","geometry":{"type":"Point","coordinates":[13.3213529,52.4572706]},"properties":{"@id":612241397,"@timestamp":1607103077,"amenity":"toilets","check_date:wheelchair":"2020-12-04","fee":"yes","name":"City Toilette","toilets:wheelchair":"yes","wheelchair":"yes"}},
{"type":"Feature","geometry":{"type":"Point","coordinates":[13.3484051,52.5561069]},"properties":{"@id":613570529,"@timestamp":1481206489,"fee":"yes","name":"City Toilette","amenity":"toilets","wheelchair":"yes","opening_hours":"24/7","toilets:wheelchair":"yes"}},
{"type":"Feature","geometry":{"type":"Point","coordinates":[13.3376515,52.5588789]},"properties":{"@id":614554794,"@timestamp":1530341938,"fee":"yes","name":"City Toilette","amenity":"toilets","operator":"Wall","wheelchair":"yes","opening_hours":"24/7","toilets:wheelchair":"yes"}},
{"type":"Feature","geometry":{"type":"Point","coordinates":[13.3631501,52.4999324]},"properties":{"@id":614554795,"@timestamp":1545636455,"fee":"yes","name":"City Toilette","phone":"+49 800 0925524","amenity":"toilets","website":"http://www.wall.de","operator":"Wall GmbH","addr:city":"Berlin","centralkey":"eurokey","wheelchair":"yes","addr:street":"Potsdamer Straße","addr:postcode":"10785","opening_hours":"24/7","addr:housenumber":"109","toilets:wheelchair":"yes"}},
{"type":"Feature","geometry":{"type":"Point","coordinates":[13.3834943,52.5560353]},"properties":{"@id":614555064,"@timestamp":1579096193,"fee":"yes","name":"Berliner Toilette","unisex":"yes","amenity":"toilets","operator":"Wall GmbH","wheelchair":"yes","description":"Berliner Toilette","payment:visa":"yes","payment:coins":"yes","changing_table":"yes","toilets:disposal":"flush","toilets:wheelchair":"yes"}},
{"type":"Feature","geometry":{"type":"Point","coordinates":[13.3559935,52.5554735]},"properties":{"@id":614557466,"@timestamp":1548195282,"fee":"yes","name":"City Toilette","amenity":"toilets","wheelchair":"yes","toilets:wheelchair":"yes"}},
{"type":"Feature","geometry":{"type":"Point","coordinates":[13.4283558,52.4799463]},"properties":{"@id":617053934,"@timestamp":1603441367,"amenity":"toilets","changing_table":"yes","charge":"0.50 EUR","description":"Berliner Toilette","fee":"yes","fee:urinal":"no","note":"südseitig 2 frei zugängliche Urinale","opening_hours":"24/7","operator":"Wall GmbH","payment:cards":"yes","payment:cash":"yes","start_date":"2020-07-17","toilets:disposal":"flush","toilets:position":"seated;urinal","toilets:wheelchair":"yes","unisex":"yes","wheelchair":"yes"}},
{"type":"Feature","geometry":{"type":"Point","coordinates":[13.4630208,52.4245238]},"properties":{"@id":617082837,"@timestamp":1606325198,"amenity":"toilets","changing_table":"yes","description":"Berliner Toilette","fee":"yes","opening_hours":"24/7","operator":"Wall GmbH","payment:coins":"yes","payment:visa":"yes","toilets:disposal":"flush","toilets:wheelchair":"yes","unisex":"yes","wheelchair":"yes"}},
{"type":"Feature","geometry":{"type":"Point","coordinates":[13.4955184,52.6342587]},"properties":{"@id":618048318,"@timestamp":1476050278,"fee":"no","amenity":"toilets","wheelchair":"yes"}},
{"type":"Feature","geometry":{"type":"Point","coordinates":[13.3593853,52.5489567]},"properties":{"@id":648910282,"@timestamp":1532610306,"amenity":"toilets","opening_hours":"Mo-Fr 09:00-17:00"}},
{"type":"Feature","geometry":{"type":"Point","coordinates":[13.3768184,52.4676202]},"properties":{"@id":650378255,"@timestamp":1407021603,"access":"customers","amenity":"toilets","operator":"Kaufland"}},
{"type":"Feature","geometry":{"type":"Point","coordinates":[13.415159,52.5026144]},"properties":{"@id":660898991,"@timestamp":1599431959,"amenity":"toilets","changing_table":"no","fee":"no","female":"no","male":"yes","wheelchair":"no"}},
{"type":"Feature","geometry":{"type":"Point","coordinates":[13.720988,52.4390961]},"properties":{"@id":667990662,"@timestamp":1570556549,"fee":"yes","unisex":"yes","amenity":"toilets","operator":"Wall GmbH","wheelchair":"yes","description":"Berliner Toilette","payment:visa":"yes","payment:coins":"yes","changing_table":"yes","toilets:disposal":"flush","toilets:wheelchair":"yes"}},
{"type":"Feature","geometry":{"type":"Point","coordinates":[13.1957166,52.5341561]},"properties":{"@id":674124305,"@timestamp":1477505100,"level":"-1","amenity":"toilets","wheelchair":"yes","toilets:wheelchair":"yes"}},
{"type":"Feature","geometry":{"type":"Point","coordinates":[13.1975169,52.5338875]},"properties":{"@id":674124307,"@timestamp":1605990504,"amenity":"toilets","fee":"no","level":"0","toilets:wheelchair":"yes","wheelchair":"yes"}},
{"type":"Feature","geometry":{"type":"Point","coordinates":[13.334897,52.507832]},"properties":{"@id":690485727,"@timestamp":1402349722,"fee":"yes","name":"Toilette im Elefantehaus","amenity":"toilets","wheelchair":"yes"}},
{"type":"Feature","geometry":{"type":"Point","coordinates":[13.509336,52.4536888]},"properties":{"@id":697095974,"@timestamp":1600943973,"amenity":"toilets","changing_table":"yes","description":"Berliner Toilette","fee":"yes","opening_hours":"24/7","operator":"Wall GmbH","payment:coins":"yes","payment:visa":"yes","toilets:disposal":"flush","toilets:wheelchair":"yes","unisex":"yes","wheelchair":"yes"}},
{"type":"Feature","geometry":{"type":"Point","coordinates":[13.2368566,52.5105858]},"properties":{"@id":718143708,"@timestamp":1288830978,"fee":"yes","name":"City Toilette","amenity":"toilets","operator":"Wall AG","centralkey":"eurokey","wheelchair":"yes"}},
{"type":"Feature","geometry":{"type":"Point","coordinates":[13.2792158,52.507185]},"properties":{"@id":718143802,"@timestamp":1457968691,"fee":"yes","level":"-1","amenity":"toilets","wheelchair":"no"}},
{"type":"Feature","geometry":{"type":"Point","coordinates":[13.3147401,52.4733785]},"properties":{"@id":726126780,"@timestamp":1546811601,"fee":"no","note":"Historische Toilette (Typ: \"Café Achteck\")","image":"http://commons.wikimedia.org/wiki/File:CafeAchteckAmRuedesheimerPlatz20050929.jpg","amenity":"toilets","wheelchair":"no","drinking_water":"yes"}},
{"type":"Feature","geometry":{"type":"Point","coordinates":[13.4002477,52.5806679]},"properties":{"@id":747395207,"@timestamp":1579099395,"fee":"yes","amenity":"toilets","operator":"Wall GmbH","centralkey":"eurokey","wheelchair":"yes","payment:visa":"yes","toilets:disposal":"flush"}},
{"type":"Feature","geometry":{"type":"Point","coordinates":[13.4118014,52.5672241]},"properties":{"@id":753328979,"@timestamp":1499666639,"fee":"yes","name":"City Toilette","amenity":"toilets","operator":"Wall AG","centralkey":"eurokey","wheelchair":"yes","toilets:wheelchair":"yes"}},
{"type":"Feature","geometry":{"type":"Point","coordinates":[13.25965,52.4310491]},"properties":{"@id":765566780,"@timestamp":1577719164,"fee":"yes","access":"yes","unisex":"yes","amenity":"toilets","operator":"Wall GmbH","wheelchair":"yes","description":"Berliner Toilette","payment:cash":"yes","payment:visa":"yes","opening_hours":"24/7","payment:coins":"yes","changing_table":"no","toilets:disposal":"flush","toilets:wheelchair":"yes"}},
{"type":"Feature","geometry":{"type":"Point","coordinates":[13.4435267,52.5292444]},"properties":{"@id":783433120,"@timestamp":1466698846,"amenity":"toilets","wheelchair":"yes","toilets:wheelchair":"yes"}},
{"type":"Feature","geometry":{"type":"Point","coordinates":[13.3035968,52.4820196]},"properties":{"@id":821587328,"@timestamp":1502597636,"fee":"no","male":"yes","note":"male","access":"customers","amenity":"toilets","toilets:disposal":"flush"}},
{"type":"Feature","geometry":{"type":"Point","coordinates":[13.3033906,52.4822756]},"properties":{"@id":821587335,"@timestamp":1502597636,"fee":"no","note":"female","access":"customers","female":"yes","amenity":"toilets","toilets:disposal":"flush"}},
{"type":"Feature","geometry":{"type":"Point","coordinates":[13.3015349,52.4815187]},"properties":{"@id":821588546,"@timestamp":1279357297,"amenity":"toilets"}},
{"type":"Feature","geometry":{"type":"Point","coordinates":[13.363746,52.5641541]},"properties":{"@id":832550019,"@timestamp":1606648739,"amenity":"toilets","fee":"no","wheelchair":"limited"}},
{"type":"Feature","geometry":{"type":"Point","coordinates":[13.4085276,52.4928344]},"properties":{"@id":840325608,"@timestamp":1606508008,"amenity":"toilets","changing_table":"yes","description":"Berliner Toilette","fee":"yes","operator":"Wall GmbH","payment:coins":"yes","payment:visa":"yes","toilets:disposal":"flush","toilets:wheelchair":"yes","unisex":"yes","wheelchair":"yes"}},
{"type":"Feature","geometry":{"type":"Point","coordinates":[13.4143478,52.4344265]},"properties":{"@id":851492389,"@timestamp":1281383145,"fee":"no","amenity":"toilets","wheelchair":"limited"}},
{"type":"Feature","geometry":{"type":"Point","coordinates":[13.375985,52.4559388]},"properties":{"@id":853887530,"@timestamp":1579099607,"fee":"yes","charge":"0.5€","unisex":"yes","amenity":"toilets","operator":"Wall GmbH","wheelchair":"yes","opening_hours":"24/7","toilets:wheelchair":"yes"}},
{"type":"Feature","geometry":{"type":"Point","coordinates":[13.5275176,52.4109899]},"properties":{"@id":855355995,"@timestamp":1482440117,"fee":"yes","name":"City Toilette","amenity":"toilets","operator":"Wall AG","centralkey":"eurokey","wheelchair":"yes","wheelchair:description":"Mit Euro-Schlüssel kostenlos"}},
{"type":"Feature","geometry":{"type":"Point","coordinates":[13.586615,52.522858]},"properties":{"@id":897675464,"@timestamp":1497979040,"name":"SpreeCenter","amenity":"toilets","wheelchair":"yes","toilets:wheelchair":"yes"}},
{"type":"Feature","geometry":{"type":"Point","coordinates":[13.3914532,52.5141833]},"properties":{"@id":927092067,"@timestamp":1476429782,"fee":"yes","name":"City Toilette","amenity":"toilets","operator":"Wall","centralkey":"eurokey","wheelchair":"yes","opening_hours":"24/7","toilets:wheelchair":"yes","wheelchair:description":"Wall City Toilette"}},
{"type":"Feature","geometry":{"type":"Point","coordinates":[13.1899148,52.454525]},"properties":{"@id":932522039,"@timestamp":1603215806,"amenity":"toilets","fee":"no","wheelchair":"no"}},
{"type":"Feature","geometry":{"type":"Point","coordinates":[13.4977622,52.4157527]},"properties":{"@id":948654855,"@timestamp":1494012001,"fee":"yes","name":"City Toilette","amenity":"toilets","operator":"Wall AG","addr:city":"Berlin","centralkey":"eurokey","wheelchair":"yes","addr:street":"Waltersdorfer Chaussee","addr:country":"DE","addr:postcode":"12355","contact:phone":"+4930338990","contact:website":"http://berlin.kauperts.de/eintrag/City-Toilette-Waltersdorfer-Chaussee-12355-Berlin","toilets:wheelchair":"yes"}},
{"type":"Feature","geometry":{"type":"Point","coordinates":[13.3196847,52.528266]},"properties":{"@id":960164646,"@timestamp":1569694006,"fee":"no","access":"no","amenity":"toilets","wheelchair":"no","toilets:wheelchair":"no"}},
{"type":"Feature","geometry":{"type":"Point","coordinates":[13.369056,52.5250818]},"properties":{"@id":976553355,"@timestamp":1599431870,"access":"yes","addr:city":"Berlin","addr:country":"DE","addr:housenumber":"1","addr:postcode":"10557","addr:street":"Europaplatz","addr:suburb":"Moabit","amenity":"toilets","changing_table":"yes","contact:phone":"+49 2736 27216","fee":"yes","name":"WC Center Berlin-Hauptbahnhof","opening_hours":"24/7","operator":"Hering","toilets:disposal":"flush","toilets:wheelchair":"yes","website":"https://www.wc-fresh.com/standort/berlin-hauptbahnhof/","wheelchair":"yes","wheelchair:description":"Euro-Schlüssel erforderlich"}},
{"type":"Feature","geometry":{"type":"Point","coordinates":[13.3320816,52.5071296]},"properties":{"@id":976596829,"@timestamp":1450889494,"name":"Öffentliche Toilette (nur mit Euro-Schlüssel)","amenity":"toilets","wheelchair":"yes","toilets:wheelchair":"yes"}},
{"type":"Feature","geometry":{"type":"Point","coordinates":[13.3124974,52.422951]},"properties":{"@id":1002641311,"@timestamp":1290616976,"fee":"no","amenity":"toilets","wheelchair":"yes"}},
{"type":"Feature","geometry":{"type":"Point","coordinates":[13.3868921,52.4387637]},"properties":{"@id":1030895309,"@timestamp":1549901716,"name":"Historische Toilette (Café Achteck)","amenity":"toilets","ref:lda":"09075197","heritage":"4","wheelchair":"no","lda:criteria":"Baudenkmal","opening_hours":"\"Geschlossen von Januar bis März und bei Dauerfrost\"","heritage:operator":"lda","toilets:wheelchair":"no"}},
{"type":"Feature","geometry":{"type":"Point","coordinates":[13.2783634,52.5049204]},"properties":{"@id":1070919487,"@timestamp":1293635576,"amenity":"toilets","wheelchair":"no"}},
{"type":"Feature","geometry":{"type":"Point","coordinates":[13.2003507,52.5355035]},"properties":{"@id":1096930211,"@timestamp":1572384129,"name":"City Toilette","amenity":"toilets","operator":"Wall","wheelchair":"yes","opening_hours":"24/7","toilets:wheelchair":"yes","wheelchair:description":"Mit Euro-Schlüssel kostenlos. Haltestangen und Notruf vorhanden."}},
{"type":"Feature","geometry":{"type":"Point","coordinates":[13.5884432,52.5208533]},"properties":{"@id":1147909340,"@timestamp":1606325126,"amenity":"toilets","changing_table":"yes","description":"Berliner Toilette","fee":"yes","opening_hours":"24/7","operator":"Wall GmbH","payment:coins":"yes","payment:visa":"yes","toilets:disposal":"flush","toilets:wheelchair":"yes","unisex":"yes","wheelchair":"yes"}},
{"type":"Feature","geometry":{"type":"Point","coordinates":[13.4205552,52.6071515]},"properties":{"@id":1158920828,"@timestamp":1579099607,"fee":"yes","access":"yes","amenity":"toilets","operator":"Wall GmbH","centralkey":"eurokey","wheelchair":"yes","opening_hours":"24/7","toilets:wheelchair":"yes"}},
{"type":"Feature","geometry":{"type":"Point","coordinates":[13.0948252,52.407931]},"properties":{"@id":1181090513,"@timestamp":1503763716,"fee":"no","amenity":"toilets","wheelchair":"yes","toilets:wheelchair":"yes"}},
{"type":"Feature","geometry":{"type":"Point","coordinates":[13.403246,52.4977567]},"properties":{"@id":1205048326,"@timestamp":1577144338,"access":"customers","amenity":"toilets","wheelchair":"yes"}},
{"type":"Feature","geometry":{"type":"Point","coordinates":[13.4055994,52.4976244]},"properties":{"@id":1205705420,"@timestamp":1300372174,"amenity":"toilets"}},
{"type":"Feature","geometry":{"type":"Point","coordinates":[13.3508816,52.4559333]},"properties":{"@id":1206287825,"@timestamp":1565485070,"male":"yes","access":"customers","female":"yes","amenity":"toilets","separated":"yes"}},
{"type":"Feature","geometry":{"type":"Point","coordinates":[13.3528317,52.4557694]},"properties":{"@id":1206287828,"@timestamp":1565485070,"access":"customers","amenity":"toilets"}},
{"type":"Feature","geometry":{"type":"Point","coordinates":[13.3067134,52.5102053]},"properties":{"@id":1229446777,"@timestamp":1558826001,"amenity":"toilets","wheelchair":"no"}},
{"type":"Feature","geometry":{"type":"Point","coordinates":[13.4098056,52.5222412]},"properties":{"@id":1249802242,"@timestamp":1537102652,"fee":"yes","access":"public","amenity":"toilets","operator":"Sanifair","wheelchair":"yes","toilets:wheelchair":"yes"}},
{"type":"Feature","geometry":{"type":"Point","coordinates":[13.4018038,52.6005368]},"properties":{"@id":1302233643,"@timestamp":1514906429,"male":"yes","access":"customers","female":"yes","source":"survey","amenity":"toilets","wheelchair":"limited","description":"Disabled=yes","toilets:wheelchair":"no"}},
{"type":"Feature","geometry":{"type":"Point","coordinates":[13.3949444,52.5075581]},"properties":{"@id":1306551400,"@timestamp":1375349599,"amenity":"toilets","wheelchair":"no"}},
{"type":"Feature","geometry":{"type":"Point","coordinates":[13.4132895,52.5537486]},"properties":{"@id":1306966563,"@timestamp":1599431919,"amenity":"toilets","centralkey":"eurokey","changing_table":"yes","fee":"yes","name":"City Toilette","opening_hours":"24/7","operator":"Wall AG","payment:app":"yes","payment:coins":"yes","payment:visa":"yes","toilets:disposal":"flush","toilets:wheelchair":"yes","unisex":"yes","wheelchair":"yes"}},
{"type":"Feature","geometry":{"type":"Point","coordinates":[13.3361659,52.4510263]},"properties":{"@id":1314648134,"@timestamp":1583341242,"fee":"yes","unisex":"yes","amenity":"toilets","operator":"Wall GmbH","wheelchair":"yes","description":"Berliner Toilette","payment:visa":"yes","opening_hours":"24/7","payment:coins":"yes","changing_table":"yes","toilets:disposal":"flush","toilets:wheelchair":"yes"}},
{"type":"Feature","geometry":{"type":"Point","coordinates":[13.5772439,52.5394649]},"properties":{"@id":1323444917,"@timestamp":1307962526,"fee":"no","amenity":"toilets","wheelchair":"no"}},
{"type":"Feature","geometry":{"type":"Point","coordinates":[13.5797503,52.5386946]},"properties":{"@id":1323444930,"@timestamp":1307962526,"fee":"no","amenity":"toilets","wheelchair":"yes"}},
{"type":"Feature","geometry":{"type":"Point","coordinates":[13.4867952,52.4659397]},"properties":{"@id":1332815597,"@timestamp":1600944008,"amenity":"toilets","changing_table":"yes","description":"Berliner Toilette","fee":"yes","opening_hours":"24/7","operator":"Wall GmbH","payment:coins":"yes","payment:visa":"yes","toilets:disposal":"flush","toilets:wheelchair":"yes","unisex":"yes","wheelchair":"yes"}},
{"type":"Feature","geometry":{"type":"Point","coordinates":[13.1985679,52.5538124]},"properties":{"@id":1334651630,"@timestamp":1440683802,"amenity":"toilets","wheelchair":"yes"}},
{"type":"Feature","geometry":{"type":"Point","coordinates":[13.3039462,52.4582802]},"properties":{"@id":1348055724,"@timestamp":1579375895,"amenity":"toilets","wheelchair":"yes"}},
{"type":"Feature","geometry":{"type":"Point","coordinates":[13.3068276,52.456435]},"properties":{"@id":1348055726,"@timestamp":1502803041,"amenity":"toilets","wheelchair":"yes","toilets:wheelchair":"yes"}},
{"type":"Feature","geometry":{"type":"Point","coordinates":[13.5905933,52.4074596]},"properties":{"@id":1358366757,"@timestamp":1530790066,"fee":"no","amenity":"toilets","wheelchair":"yes"}},
{"type":"Feature","geometry":{"type":"Point","coordinates":[13.2383298,52.5444615]},"properties":{"@id":1366551999,"@timestamp":1408363787,"name":"Öffentliche Toilette","amenity":"toilets","wheelchair":"yes","wheelchair:description":"Für die Behindertentoilette ist der Euro-Schlüssen erforderlich!"}},
{"type":"Feature","geometry":{"type":"Point","coordinates":[13.539252,52.4344461]},"properties":{"@id":1371616212,"@timestamp":1579099607,"fee":"yes","access":"public","charge":"50 cent","unisex":"yes","amenity":"toilets","website":"http://www.wall.de","operator":"Wall GmbH","wheelchair":"yes","payment:visa":"yes","toilets:disposal":"flush","toilets:wheelchair":"yes"}},
{"type":"Feature","geometry":{"type":"Point","coordinates":[13.372021,52.5226503]},"properties":{"@id":1453830466,"@timestamp":1397330769,"amenity":"toilets","wheelchair":"no"}},
{"type":"Feature","geometry":{"type":"Point","coordinates":[13.3708178,52.5225436]},"properties":{"@id":1453886966,"@timestamp":1317796631,"amenity":"toilets","wheelchair":"no"}},
{"type":"Feature","geometry":{"type":"Point","coordinates":[13.5238162,52.5046955]},"properties":{"@id":1469076897,"@timestamp":1318757806,"amenity":"toilets","wheelchair":"no"}},
{"type":"Feature","geometry":{"type":"Point","coordinates":[13.5751048,52.5385816]},"properties":{"@id":1482482347,"@timestamp":1321128446,"fee":"no","amenity":"toilets","wheelchair":"yes"}},
{"type":"Feature","geometry":{"type":"Point","coordinates":[13.367006,52.4938214]},"properties":{"@id":1489542116,"@timestamp":1606376659,"amenity":"toilets","changing_table":"yes","description":"Berliner Toilette","fee":"yes","opening_hours":"24/7","operator":"Wall GmbH","payment:coins":"yes","payment:visa":"yes","toilets:disposal":"flush","toilets:wheelchair":"yes","unisex":"yes","wheelchair":"yes"}},
{"type":"Feature","geometry":{"type":"Point","coordinates":[13.5047152,52.5480093]},"properties":{"@id":1535094001,"@timestamp":1533644151,"level":"1","amenity":"toilets","operator":"Kaufland","wheelchair":"yes"}},
{"type":"Feature","geometry":{"type":"Point","coordinates":[13.3280438,52.4725407]},"properties":{"@id":1639361903,"@timestamp":1579098748,"fee":"yes","unisex":"yes","amenity":"toilets","operator":"Wall GmbH","wheelchair":"yes","description":"Berliner Toilette","payment:visa":"yes","payment:coins":"yes","changing_table":"yes","toilets:disposal":"flush","toilets:wheelchair":"yes"}},
{"type":"Feature","geometry":{"type":"Point","coordinates":[13.4074699,52.5221184]},"properties":{"@id":1653339120,"@timestamp":1518175022,"fee":"no","amenity":"toilets","wheelchair":"yes","opening_hours":"Mo-Sa 07:00-22:00; Su,PH off"}},
{"type":"Feature","geometry":{"type":"Point","coordinates":[13.2885324,52.5881684]},"properties":{"@id":1676549556,"@timestamp":1579099607,"fee":"yes","unisex":"yes","amenity":"toilets","operator":"Wall GmbH","centralkey":"eurokey","wheelchair":"yes","payment:visa":"yes","opening_hours":"24/7","changing_table":"yes"}},
{"type":"Feature","geometry":{"type":"Point","coordinates":[13.209514799999999,52.5854047]},"properties":{"@id":1694286748,"@timestamp":1598187045,"amenity":"toilets","wheelchair":"no"}},
{"type":"Feature","geometry":{"type":"Point","coordinates":[13.214237,52.5407706]},"properties":{"@id":1772989815,"@timestamp":1411280347,"fee":"no","amenity":"toilets","wheelchair":"no"}},
{"type":"Feature","geometry":{"type":"Point","coordinates":[13.2637393,52.4875751]},"properties":{"@id":1783747284,"@timestamp":1579099395,"fee":"yes","amenity":"toilets","operator":"Wall GmbH","wheelchair":"yes","payment:visa":"yes","toilets:disposal":"flush"}},
{"type":"Feature","geometry":{"type":"Point","coordinates":[13.3200917,52.5127988]},"properties":{"@id":1809995809,"@timestamp":1577964244,"fee":"no","name":"Technische Universität","amenity":"toilets","wheelchair":"yes","toilets:wheelchair":"yes","wheelchair:description":"Den Schlüssel gibt´s beim Einlass. Auch für Nicht-Studenten! Der Einlass ist Tag und Nacht besetzt."}},
{"type":"Feature","geometry":{"type":"Point","coordinates":[13.3669402,52.459428]},"properties":{"@id":1813864246,"@timestamp":1341498660,"fee":"no","note":"Dixi-Klo","amenity":"toilets","wheelchair":"no"}},
{"type":"Feature","geometry":{"type":"Point","coordinates":[13.2142552,52.5407294]},"properties":{"@id":1835625932,"@timestamp":1411280347,"name":"Behindertentoilette","amenity":"toilets","wheelchair":"yes","description":"mit Euro-Schlüssel"}},
{"type":"Feature","geometry":{"type":"Point","coordinates":[13.6253798,52.4577637]},"properties":{"@id":1837548917,"@timestamp":1600506678,"amenity":"toilets","changing_table":"no","fee":"yes","name":"City Toilette","toilets:wheelchair":"yes","wheelchair":"yes"}},
{"type":"Feature","geometry":{"type":"Point","coordinates":[13.4657272,52.5539075]},"properties":{"@id":1860568005,"@timestamp":1403429101,"amenity":"toilets"}},
{"type":"Feature","geometry":{"type":"Point","coordinates":[13.2748522,52.5061113]},"properties":{"@id":1899025641,"@timestamp":1346791413,"amenity":"toilets"}},
{"type":"Feature","geometry":{"type":"Point","coordinates":[13.2731732,52.5066304]},"properties":{"@id":1899025644,"@timestamp":1346791413,"amenity":"toilets"}},
{"type":"Feature","geometry":{"type":"Point","coordinates":[13.4386447,52.4918964]},"properties":{"@id":1913867221,"@timestamp":1392736096,"fee":"yes","amenity":"toilets","operator":"Burg am See","wheelchair":"limited"}},
{"type":"Feature","geometry":{"type":"Point","coordinates":[13.1651334,52.5489481]},"properties":{"@id":1914161737,"@timestamp":1522756995,"amenity":"toilets","addr:city":"Berlin","wheelchair":"no","addr:street":"Spektefeld","description":"Toiletten-Container","addr:postcode":"13589","wheelchair:description":"Die Toiletten erreicht man nur über eine Treppe!!"}},
{"type":"Feature","geometry":{"type":"Point","coordinates":[13.2704595,52.5049372]},"properties":{"@id":1917330916,"@timestamp":1347809826,"amenity":"toilets"}},
{"type":"Feature","geometry":{"type":"Point","coordinates":[13.5479454,52.4379566]},"properties":{"@id":1978502855,"@timestamp":1594313869,"fee":"yes","unisex":"yes","amenity":"toilets","addr:place":"Marktplatz","opening_hours":"Mo-Su 09:00-24:00","changing_table":"no"}},
{"type":"Feature","geometry":{"type":"Point","coordinates":[13.5460488,52.4409638]},"properties":{"@id":1978519821,"@timestamp":1520886249,"amenity":"toilets","wheelchair":"no"}},
{"type":"Feature","geometry":{"type":"Point","coordinates":[13.2889945,52.6319692]},"properties":{"@id":1991761085,"@timestamp":1579099607,"fee":"yes","unisex":"yes","amenity":"toilets","operator":"Wall GmbH","addr:city":"Berlin","wheelchair":"yes","addr:street":"Welfenallee","payment:visa":"yes","addr:postcode":"13465","opening_hours":"24/7","addr:housenumber":"1","toilets:disposal":"flush","toilets:wheelchair":"yes"}},
{"type":"Feature","geometry":{"type":"Point","coordinates":[13.2400893,52.5331943]},"properties":{"@id":2132541603,"@timestamp":1359391068,"amenity":"toilets"}},
{"type":"Feature","geometry":{"type":"Point","coordinates":[13.4243168,52.5040691]},"properties":{"@id":2143522429,"@timestamp":1370590898,"amenity":"toilets","wheelchair":"yes"}},
{"type":"Feature","geometry":{"type":"Point","coordinates":[13.312484,52.4868652]},"properties":{"@id":2273522793,"@timestamp":1602332764,"amenity":"toilets"}},
{"type":"Feature","geometry":{"type":"Point","coordinates":[13.3098239,52.4868752]},"properties":{"@id":2273522804,"@timestamp":1562387977,"amenity":"toilets","wheelchair":"yes","toilets:wheelchair":"yes"}},
{"type":"Feature","geometry":{"type":"Point","coordinates":[13.3019869,52.4737381]},"properties":{"@id":2273522806,"@timestamp":1449186558,"amenity":"toilets","wheelchair":"yes","toilets:wheelchair":"yes"}},
{"type":"Feature","geometry":{"type":"Point","coordinates":[13.198344,52.4693356]},"properties":{"@id":2295133206,"@timestamp":1412331435,"amenity":"toilets","addr:city":"Berlin","addr:street":"Lieper Bucht","addr:country":"DE","addr:housenumber":"1"}},
{"type":"Feature","geometry":{"type":"Point","coordinates":[13.4345705,52.5114926]},"properties":{"@id":2302013307,"@timestamp":1452875307,"fee":"yes","name":"City Toilette","access":"public","amenity":"toilets","operator":"Wall AG","centralkey":"eurokey","wheelchair":"yes","opening_hours":"24/7","toilets:wheelchair":"yes"}},
{"type":"Feature","geometry":{"type":"Point","coordinates":[13.3792609,52.4943924]},"properties":{"@id":2328392984,"@timestamp":1477650719,"fee":"no","amenity":"toilets","wheelchair":"yes","opening_hours":"24/7","toilets:wheelchair":"yes"}},
{"type":"Feature","geometry":{"type":"Point","coordinates":[13.4319232,52.462757]},"properties":{"@id":2332761255,"@timestamp":1540731093,"note":"wegen Vandalismus geschlossen.","access":"no","amenity":"toilets"}},
{"type":"Feature","geometry":{"type":"Point","coordinates":[13.39776,52.6037205]},"properties":{"@id":2338749579,"@timestamp":1598280596,"access":"yes","amenity":"toilets","opening_hours":"Mar-Nov","toilets:disposal":"flush","wheelchair":"no"}},
{"type":"Feature","geometry":{"type":"Point","coordinates":[13.397393,52.6039187]},"properties":{"@id":2338749608,"@timestamp":1377456147,"amenity":"toilets","wheelchair":"yes"}},
{"type":"Feature","geometry":{"type":"Point","coordinates":[13.445799,52.554353]},"properties":{"@id":2349795034,"@timestamp":1371496271,"fee":"yes","male":"yes","name":"Georgen-Parochial-Friedhof Haupteingang","female":"yes","amenity":"toilets","opening_hours":"Mo-Su 08:00-20:00"}},
{"type":"Feature","geometry":{"type":"Point","coordinates":[13.3811976,52.5165742]},"properties":{"@id":2351691628,"@timestamp":1579988018,"fee":"yes","name":"City Toilette","level":"0","access":"yes","amenity":"toilets","wheelchair":"yes","payment:coins":"yes","payment:notes":"no","toilets:disposal":"flush","toilets:position":"seated","toilets:wheelchair":"yes","payment:debit_cards":"no","payment:credit_cards":"no","payment:cryptocurrencies":"no","payment:electronic_purses":"no"}},
{"type":"Feature","geometry":{"type":"Point","coordinates":[13.4811982,52.6473047]},"properties":{"@id":2356047927,"@timestamp":1371911562,"amenity":"toilets"}},
{"type":"Feature","geometry":{"type":"Point","coordinates":[13.3707318,52.4985527]},"properties":{"@id":2373093362,"@timestamp":1550401253,"amenity":"toilets","wheelchair":"yes"}},
{"type":"Feature","geometry":{"type":"Point","coordinates":[13.387559,52.520725]},"properties":{"@id":2378807163,"@timestamp":1599431959,"amenity":"toilets","changing_table":"yes","fee":"yes","female":"yes","male":"yes","opening_hours":"24/7","wheelchair":"yes"}},
{"type":"Feature","geometry":{"type":"Point","coordinates":[13.3819484,52.410075]},"properties":{"@id":2387056584,"@timestamp":1602250846,"access":"permissive","amenity":"toilets","changing_table":"yes","fee":"no","female":"yes","level":"0","male":"yes","opening_hours":"Mo-Sa 07:00-22:00","toilets:disposal":"flush","toilets:position":"seated;urinal","toilets:wheelchair":"yes","wheelchair":"yes"}},
{"type":"Feature","geometry":{"type":"Point","coordinates":[13.3263083,52.5096974]},"properties":{"@id":2420832350,"@timestamp":1376663803,"fee":"no","level":"-1","amenity":"toilets","wheelchair":"no"}},
{"type":"Feature","geometry":{"type":"Point","coordinates":[13.2191164,52.5753534]},"properties":{"@id":2421748309,"@timestamp":1598185147,"access":"yes","amenity":"toilets","fee":"no","opening_hours":"24/7","operator":"BSR","toilets:disposal":"pitlatrine","toilets:wheelchair":"yes","unisex":"yes","wheelchair":"limited","wheelchair:description":"Euro Schlüssel für den Toiletten Container erforderlich. Ein Wasser vorhanden!"}},
{"type":"Feature","geometry":{"type":"Point","coordinates":[13.4159934,52.4826771]},"properties":{"@id":2425536936,"@timestamp":1546499128,"fee":"no","amenity":"toilets","wheelchair":"no","opening_hours":"Mo-Su 10:00-23:00","toilets:wheelchair":"no"}},
{"type":"Feature","geometry":{"type":"Point","coordinates":[13.1761347,52.4199095]},"properties":{"@id":2459611822,"@timestamp":1509185990,"fee":"yes","male":"yes","female":"yes","indoor":"yes","unisex":"no","amenity":"toilets","supervised":"yes","drinking_water":"yes"}},
{"type":"Feature","geometry":{"type":"Point","coordinates":[13.6032441,52.531907]},"properties":{"@id":2654762858,"@timestamp":1579099607,"fee":"yes","amenity":"toilets","operator":"Wall GmbH","centralkey":"eurokey","wheelchair":"yes","payment:visa":"yes","toilets:disposal":"flush"}},
{"type":"Feature","geometry":{"type":"Point","coordinates":[13.451135,52.489063]},"properties":{"@id":2696505685,"@timestamp":1599432086,"amenity":"toilets","changing_table":"yes","description":"Berliner Toilette","fee":"yes","opening_hours":"24/7","operator":"Wall GmbH","payment:coins":"yes","payment:visa":"yes","toilets:disposal":"flush","toilets:wheelchair":"yes","unisex":"yes","wheelchair":"yes"}},
{"type":"Feature","geometry":{"type":"Point","coordinates":[13.3530335,52.5445729]},"properties":{"@id":2736062782,"@timestamp":1395566932,"name":"Damen und Herren WC","amenity":"toilets","location":"EG","wheelchair":"yes"}},
{"type":"Feature","geometry":{"type":"Point","coordinates":[13.1777997,52.4362324]},"properties":{"@id":2750387890,"@timestamp":1557315374,"name":"Toilette 5","access":"no","amenity":"toilets","toilets:disposal":"flush"}},
{"type":"Feature","geometry":{"type":"Point","coordinates":[13.3366498,52.5103489]},"properties":{"@id":2755751089,"@timestamp":1449240262,"access":"public","amenity":"toilets","wheelchair":"no"}},
{"type":"Feature","geometry":{"type":"Point","coordinates":[13.37208,52.4965642]},"properties":{"@id":2780540653,"@timestamp":1397079224,"amenity":"toilets"}},
{"type":"Feature","geometry":{"type":"Point","coordinates":[13.3850929,52.4659369]},"properties":{"@id":2782101092,"@timestamp":1526930291,"fee":"no","access":"public","amenity":"toilets"}},
{"type":"Feature","geometry":{"type":"Point","coordinates":[13.1681855,52.54584]},"properties":{"@id":2802040174,"@timestamp":1573912961,"access":"public","amenity":"toilets","wheelchair":"yes","toilets:wheelchair":"yes"}},
{"type":"Feature","geometry":{"type":"Point","coordinates":[13.2616439,52.4675063]},"properties":{"@id":2823976726,"@timestamp":1409594636,"access":"public","amenity":"toilets","addr:city":"Berlin","addr:street":"Hüttenweg","addr:suburb":"Grunewald","addr:country":"DE","addr:postcode":"14193","opening_hours":"Nov-Mar Sa,Su,PH 10:00-16:00; Apr-Oct Tu-Su 10:00-18:00","drinking_water":"yes","addr:housenumber":"100","toilets:disposal":"flush"}},
{"type":"Feature","geometry":{"type":"Point","coordinates":[13.4514767,52.4971662]},"properties":{"@id":2837703632,"@timestamp":1399296185,"amenity":"toilets"}},
{"type":"Feature","geometry":{"type":"Point","coordinates":[13.4573559,52.4296013]},"properties":{"@id":2866359085,"@timestamp":1544447693,"access":"customers","amenity":"toilets","wheelchair":"yes"}},
{"type":"Feature","geometry":{"type":"Point","coordinates":[13.3449741,52.5155971]},"properties":{"@id":2877285649,"@timestamp":1532615295,"fee":"no","amenity":"toilets","wheelchair":"no","toilets:wheelchair":"no"}},
{"type":"Feature","geometry":{"type":"Point","coordinates":[13.1969125,52.5252096]},"properties":{"@id":2906318701,"@timestamp":1453556755,"fee":"yes","male":"yes","name":"City Toilette","female":"yes","source":"Geoportal Berlin / Hauskoordinaten","amenity":"toilets","wheelchair":"yes","toilets:wheelchair":"yes"}},
{"type":"Feature","geometry":{"type":"Point","coordinates":[13.676914,52.4428708]},"properties":{"@id":3011404374,"@timestamp":1407794230,"amenity":"toilets"}},
{"type":"Feature","geometry":{"type":"Point","coordinates":[13.4442228,52.4982544]},"properties":{"@id":3073255685,"@timestamp":1597393587,"access":"public","amenity":"toilets","wheelchair":"no","toilets:position":"urinal"}},
{"type":"Feature","geometry":{"type":"Point","coordinates":[13.4115082,52.5029268]},"properties":{"@id":3090410739,"@timestamp":1439118247,"amenity":"toilets","wheelchair":"limited","toilets:wheelchair":"yes"}},
{"type":"Feature","geometry":{"type":"Point","coordinates":[13.5852693,52.460382]},"properties":{"@id":3094367707,"@timestamp":1534951954,"access":"customers","amenity":"toilets"}},
{"type":"Feature","geometry":{"type":"Point","coordinates":[13.2360264,52.490315]},"properties":{"@id":3121841839,"@timestamp":1412930783,"amenity":"toilets"}},
{"type":"Feature","geometry":{"type":"Point","coordinates":[13.3318823,52.4938612]},"properties":{"@id":3154409161,"@timestamp":1539501293,"male":"yes","female":"yes","amenity":"toilets","operator":"Prager Passage","wheelchair":"yes","opening_hours":"Mo-Sa 08:00-18:00"}},
{"type":"Feature","geometry":{"type":"Point","coordinates":[13.4658951,52.557167]},"properties":{"@id":3181885302,"@timestamp":1454497143,"fee":"yes","name":"City Toilette","access":"public","amenity":"toilets","operator":"Wall","centralkey":"eurokey","wheelchair":"yes","toilets:wheelchair":"yes"}},
{"type":"Feature","geometry":{"type":"Point","coordinates":[13.433836,52.528144]},"properties":{"@id":3201464861,"@timestamp":1450056590,"amenity":"toilets","addr:city":"Berlin","wheelchair":"yes","addr:street":"Am Friedrichshain","addr:suburb":"Friedrichshain","addr:country":"DE","addr:postcode":"10407"}},
{"type":"Feature","geometry":{"type":"Point","coordinates":[13.3522975,52.5441039]},"properties":{"@id":3211345892,"@timestamp":1511546770,"fee":"no","access":"public","amenity":"toilets"}},
{"type":"Feature","geometry":{"type":"Point","coordinates":[13.4582056,52.5454229]},"properties":{"@id":3269400307,"@timestamp":1550556521,"fee":"no","amenity":"toilets","drinking_water":"yes","toilets:disposal":"flush"}},
{"type":"Feature","geometry":{"type":"Point","coordinates":[13.461037899999999,52.5544677]},"properties":{"@id":3300507073,"@timestamp":1579687350,"access":"customers","amenity":"toilets","wheelchair":"yes"}},
{"type":"Feature","geometry":{"type":"Point","coordinates":[13.4885155,52.617643]},"properties":{"@id":3317308217,"@timestamp":1579098748,"fee":"yes","unisex":"yes","amenity":"toilets","operator":"Wall GmbH","wheelchair":"yes","description":"Berliner Toilette","payment:visa":"yes","payment:coins":"yes","changing_table":"yes","toilets:disposal":"flush","toilets:wheelchair":"yes"}},
{"type":"Feature","geometry":{"type":"Point","coordinates":[13.3999766,52.5194651]},"properties":{"@id":3317358559,"@timestamp":1597576816,"fee":"yes","name":"City Toilette","amenity":"toilets","operator":"Wall AG","wheelchair":"yes","toilets:wheelchair":"yes"}},
{"type":"Feature","geometry":{"type":"Point","coordinates":[13.2352346,52.4690484]},"properties":{"@id":3319965293,"@timestamp":1422571469,"amenity":"toilets"}},
{"type":"Feature","geometry":{"type":"Point","coordinates":[13.3830226,52.5106351]},"properties":{"@id":3338458355,"@timestamp":1423423025,"fee":"yes","access":"customers","amenity":"toilets","wheelchair":"yes","toilets:disposal":"flush","toilets:position":"seated"}},
{"type":"Feature","geometry":{"type":"Point","coordinates":[13.3890855,52.5183901]},"properties":{"@id":3338459657,"@timestamp":1485461120,"fee":"no","access":"customers","amenity":"toilets","wheelchair":"yes","toilets:disposal":"flush","toilets:position":"seated"}},
{"type":"Feature","geometry":{"type":"Point","coordinates":[13.4125455,52.438375]},"properties":{"@id":3343053921,"@timestamp":1552237246,"access":"customers","amenity":"toilets","wheelchair":"limited","toilets:disposal":"flush"}},
{"type":"Feature","geometry":{"type":"Point","coordinates":[13.4117384,52.5225796]},"properties":{"@id":3397870263,"@timestamp":1554654089,"fee":"yes","level":"2","access":"customers","amenity":"toilets","wheelchair":"yes","toilets:disposal":"flush"}},
{"type":"Feature","geometry":{"type":"Point","coordinates":[13.2431641,52.5759527]},"properties":{"@id":3441428131,"@timestamp":1606058938,"amenity":"toilets","check_date:wheelchair":"2020-11-22","fee":"no","note":"Toilettencontainer","wheelchair":"no"}},
{"type":"Feature","geometry":{"type":"Point","coordinates":[13.5024392,52.4831629]},"properties":{"@id":3452218363,"@timestamp":1437587125,"amenity":"toilets"}},
{"type":"Feature","geometry":{"type":"Point","coordinates":[13.4391066,52.5246033]},"properties":{"@id":3454241060,"@timestamp":1518174337,"fee":"no","male":"yes","female":"no","indoor":"yes","source":"survey","amenity":"toilets"}},
{"type":"Feature","geometry":{"type":"Point","coordinates":[13.4391436,52.524822]},"properties":{"@id":3454241061,"@timestamp":1518174345,"fee":"no","male":"no","female":"yes","indoor":"yes","source":"survey","amenity":"toilets"}},
{"type":"Feature","geometry":{"type":"Point","coordinates":[13.4289223,52.5416699]},"properties":{"@id":3457159699,"@timestamp":1581112243,"fee":"no","access":"yes","amenity":"toilets","operator":"Bürgeramt Prenzlauer Berg","wheelchair":"yes","toilets:disposal":"flush","toilets:position":"seated;urinal"}},
{"type":"Feature","geometry":{"type":"Point","coordinates":[13.4609937,52.5291629]},"properties":{"@id":3490706053,"@timestamp":1551209152,"fee":"no","name":"Kundentoilette Sachsen Küchen","access":"customers","amenity":"toilets","toilets:disposal":"flush"}},
{"type":"Feature","geometry":{"type":"Point","coordinates":[13.3200049,52.4568814]},"properties":{"@id":3490724147,"@timestamp":1503602991,"fee":"no","male":"yes","access":"customers","female":"yes","amenity":"toilets","operator":"Back-Factory","wheelchair":"yes","drinking_water":"yes","toilets:disposal":"flush","toilets:position":"seated;urinal"}},
{"type":"Feature","geometry":{"type":"Point","coordinates":[13.488641,52.4809299]},"properties":{"@id":3682089865,"@timestamp":1438770946,"fee":"no","access":"public","amenity":"toilets","toilets:disposal":"flush"}},
{"type":"Feature","geometry":{"type":"Point","coordinates":[13.3097799,52.451759]},"properties":{"@id":3683994495,"@timestamp":1512918259,"amenity":"toilets"}},
{"type":"Feature","geometry":{"type":"Point","coordinates":[13.336666,52.618132]},"properties":{"@id":3688060528,"@timestamp":1439126666,"amenity":"toilets"}},
{"type":"Feature","geometry":{"type":"Point","coordinates":[13.4128017,52.576168]},"properties":{"@id":3715382340,"@timestamp":1606324894,"amenity":"toilets","changing_table":"yes","fee":"no"}},
{"type":"Feature","geometry":{"type":"Point","coordinates":[13.4125464,52.5765094]},"properties":{"@id":3717577635,"@timestamp":1440710418,"amenity":"toilets"}},
{"type":"Feature","geometry":{"type":"Point","coordinates":[13.2403207,52.4537143]},"properties":{"@id":3740428919,"@timestamp":1513270873,"fee":"no","access":"public","unisex":"yes","amenity":"toilets","toilets:disposal":"chemical"}},
{"type":"Feature","geometry":{"type":"Point","coordinates":[13.6255275,52.4170873]},"properties":{"@id":3825536180,"@timestamp":1447024184,"fee":"yes","male":"yes","female":"yes","amenity":"toilets"}},
{"type":"Feature","geometry":{"type":"Point","coordinates":[13.5492389,52.5443605]},"properties":{"@id":3842680251,"@timestamp":1579099607,"fee":"yes","amenity":"toilets","operator":"Wall GmbH","centralkey":"eurokey","wheelchair":"yes","payment:visa":"yes","opening_hours":"24/7","changing_table":"yes"}},
{"type":"Feature","geometry":{"type":"Point","coordinates":[13.3469324,52.5334342]},"properties":{"@id":3860571062,"@timestamp":1598206151,"amenity":"toilets","changing_table":"no","fee":"no","name":"Historische Toilette (Café Achteck)","toilets:wheelchair":"no","wheelchair":"no"}},
{"type":"Feature","geometry":{"type":"Point","coordinates":[13.3293855,52.4294522]},"properties":{"@id":3953458282,"@timestamp":1586471056,"level":"-1","amenity":"toilets","wheelchair":"yes","description":"Im Untergeschoss","changing_table":"yes"}},
{"type":"Feature","geometry":{"type":"Point","coordinates":[13.2860887,52.4588617]},"properties":{"@id":3974152809,"@timestamp":1454000260,"amenity":"toilets"}},
{"type":"Feature","geometry":{"type":"Point","coordinates":[13.2580463,52.4331023]},"properties":{"@id":3980482214,"@timestamp":1458323212,"amenity":"toilets","addr:street":"Kirchstraße","description":"Im Rathaus Zehlendorf","addr:housenumber":"1+3"}},
{"type":"Feature","geometry":{"type":"Point","coordinates":[13.387688,52.5203163]},"properties":{"@id":4003667897,"@timestamp":1455349542,"fee":"yes","level":"-1","access":"public","indoor":"yes","amenity":"toilets","operator":"Sanifair","wheelchair":"yes"}},
{"type":"Feature","geometry":{"type":"Point","coordinates":[13.304319,52.525402]},"properties":{"@id":4051269792,"@timestamp":1589124024,"fee":"no","name":"Öffentliche Toilette","amenity":"toilets","wheelchair":"yes","toilets:wheelchair":"yes","wheelchair:description":"Nur mit Euro-Schlüssel nutzbar"}},
{"type":"Feature","geometry":{"type":"Point","coordinates":[13.3071746,52.5061992]},"properties":{"@id":4061391767,"@timestamp":1508912857,"fee":"yes","level":"2","access":"customers","female":"no","amenity":"toilets","wheelchair":"yes","toilets:wheelchair":"yes"}},
{"type":"Feature","geometry":{"type":"Point","coordinates":[13.4614338,52.5240619]},"properties":{"@id":4077933793,"@timestamp":1481923451,"fee":"no","access":"customers","unisex":"yes","amenity":"toilets","operator":"Kaufland","wheelchair":"yes","toilets:disposal":"flush","toilets:wheelchair":"yes"}},
{"type":"Feature","geometry":{"type":"Point","coordinates":[13.1925318,52.5677071]},"properties":{"@id":4100233311,"@timestamp":1573912982,"amenity":"toilets","wheelchair":"yes","toilets:wheelchair":"yes"}},
{"type":"Feature","geometry":{"type":"Point","coordinates":[13.4381234,52.4788125]},"properties":{"@id":4102071490,"@timestamp":1537696471,"fee":"yes","name":"City Toilette","amenity":"toilets","wheelchair":"yes","toilets:wheelchair":"yes"}},
{"type":"Feature","geometry":{"type":"Point","coordinates":[13.1971549,52.5710801]},"properties":{"@id":4127536103,"@timestamp":1460882570,"amenity":"toilets"}},
{"type":"Feature","geometry":{"type":"Point","coordinates":[13.2212282,52.5945316]},"properties":{"@id":4129127606,"@timestamp":1460935360,"fee":"no","name":"Toiletten-Container","unisex":"yes","amenity":"toilets","operator":"BSR","toilets:disposal":"pitlatrine"}},
{"type":"Feature","geometry":{"type":"Point","coordinates":[13.3911254,52.5012472]},"properties":{"@id":4169900689,"@timestamp":1606334427,"amenity":"toilets","fee":"yes","opening_hours":"24/7","operator":"Wall","toilets:wheelchair":"yes","wheelchair":"yes"}},
{"type":"Feature","geometry":{"type":"Point","coordinates":[13.524203,52.475576]},"properties":{"@id":4172772889,"@timestamp":1462708720,"amenity":"toilets"}},
{"type":"Feature","geometry":{"type":"Point","coordinates":[13.2305092,52.5133798]},"properties":{"@id":4218712245,"@timestamp":1464766517,"fee":"no","male":"yes","access":"yes","female":"yes","amenity":"toilets"}},
{"type":"Feature","geometry":{"type":"Point","coordinates":[13.291179,52.543114]},"properties":{"@id":4225421094,"@timestamp":1465048263,"amenity":"toilets"}},
{"type":"Feature","geometry":{"type":"Point","coordinates":[13.4817053,52.5791432]},"properties":{"@id":4239735855,"@timestamp":1606367619,"access":"customers","amenity":"toilets","changing_table":"yes","changing_table:count":"1","drinking_water":"yes","female":"yes","male":"yes","toilets:disposal":"flush","toilets:position":"seated;urinal"}},
{"type":"Feature","geometry":{"type":"Point","coordinates":[13.4800239,52.4853355]},"properties":{"@id":4253085066,"@timestamp":1563979227,"fee":"yes","access":"yes","amenity":"toilets","wheelchair":"yes"}},
{"type":"Feature","geometry":{"type":"Point","coordinates":[13.3843208,52.5338737]},"properties":{"@id":4267091448,"@timestamp":1553492270,"fee":"no","female":"yes","amenity":"toilets","toilets:disposal":"flush"}},
{"type":"Feature","geometry":{"type":"Point","coordinates":[13.3843725,52.5338236]},"properties":{"@id":4267091449,"@timestamp":1553492270,"fee":"no","male":"yes","access":"customers","amenity":"toilets","toilets:disposal":"flush"}},
{"type":"Feature","geometry":{"type":"Point","coordinates":[13.3843933,52.5336351]},"properties":{"@id":4267091856,"@timestamp":1553492271,"access":"private","unisex":"yes","amenity":"toilets","toilets:disposal":"flush"}},
{"type":"Feature","geometry":{"type":"Point","coordinates":[13.3928357,52.5128207]},"properties":{"@id":4286130005,"@timestamp":1467816364,"fee":"no","access":"yes","amenity":"toilets","wheelchair":"no","opening_hours":"May-Sep: 10:00-19:00; Oct-Apr 10:00-18:00"}},
{"type":"Feature","geometry":{"type":"Point","coordinates":[13.4171149,52.479954]},"properties":{"@id":4290134620,"@timestamp":1467963988,"fee":"no","male":"yes","access":"customers","female":"yes","amenity":"toilets","toilets:disposal":"flush","toilets:position":"seated"}},
{"type":"Feature","geometry":{"type":"Point","coordinates":[13.362559,52.556563]},"properties":{"@id":4294674699,"@timestamp":1577144338,"access":"customers","amenity":"toilets","wheelchair":"yes"}},
{"type":"Feature","geometry":{"type":"Point","coordinates":[13.4810618,52.4956998]},"properties":{"@id":4296007992,"@timestamp":1597628578,"amenity":"toilets","changing_table":"no","fee":"no","wheelchair":"yes"}},
{"type":"Feature","geometry":{"type":"Point","coordinates":[13.4307258,52.5090584]},"properties":{"@id":4308868164,"@timestamp":1468842354,"amenity":"toilets"}},
{"type":"Feature","geometry":{"type":"Point","coordinates":[13.3888535,52.549541]},"properties":{"@id":4317555799,"@timestamp":1469306803,"fee":"yes","male":"yes","level":"-1","female":"yes","amenity":"toilets","operator":"Sanifair"}},
{"type":"Feature","geometry":{"type":"Point","coordinates":[13.3889238,52.5495428]},"properties":{"@id":4317555800,"@timestamp":1469306803,"level":"-1","access":"private","amenity":"toilets"}},
{"type":"Feature","geometry":{"type":"Point","coordinates":[13.4633273,52.4933749]},"properties":{"@id":4339502620,"@timestamp":1607177208,"amenity":"toilets","fee":"yes","wheelchair":"yes"}},
{"type":"Feature","geometry":{"type":"Point","coordinates":[13.3026807,52.6108952]},"properties":{"@id":4351255327,"@timestamp":1606376734,"access":"customers","amenity":"toilets","changing_table":"no","drinking_water":"seasonal","fee":"no","female":"yes","male":"yes","toilets:disposal":"flush","toilets:position":"seated;urinal","wheelchair":"no"}},
{"type":"Feature","geometry":{"type":"Point","coordinates":[13.3609798,52.5478499]},"properties":{"@id":4351511612,"@timestamp":1505568953,"amenity":"toilets"}},
{"type":"Feature","geometry":{"type":"Point","coordinates":[13.2939325,52.519856]},"properties":{"@id":4359607233,"@timestamp":1471756795,"name":"Toilette","amenity":"toilets"}},
{"type":"Feature","geometry":{"type":"Point","coordinates":[13.2931103,52.5199407]},"properties":{"@id":4359607234,"@timestamp":1540462001,"name":"Toilette","amenity":"toilets","wheelchair":"no"}},
{"type":"Feature","geometry":{"type":"Point","coordinates":[13.5235963,52.4984962]},"properties":{"@id":4381117581,"@timestamp":1472841806,"amenity":"toilets","wheelchair":"yes"}},
{"type":"Feature","geometry":{"type":"Point","coordinates":[13.3681344,52.5244986]},"properties":{"@id":4389473677,"@timestamp":1482271372,"fee":"yes","male":"yes","level":"0","access":"customers","female":"yes","amenity":"toilets","wheelchair":"no","drinking_water":"yes","toilets:disposal":"flush"}},
{"type":"Feature","geometry":{"type":"Point","coordinates":[13.5007473,52.5422056]},"properties":{"@id":4396258268,"@timestamp":1473606116,"amenity":"toilets"}},
{"type":"Feature","geometry":{"type":"Point","coordinates":[13.3949409,52.5153304]},"properties":{"@id":4402299889,"@timestamp":1473928816,"amenity":"toilets","operator":"St.-Hedwigs-Kathedrale"}},
{"type":"Feature","geometry":{"type":"Point","coordinates":[13.4182275,52.4985993]},"properties":{"@id":4404264492,"@timestamp":1493497021,"fee":"yes","name":"City Toilette","amenity":"toilets","wheelchair":"yes","opening_hours":"24/7","toilets:wheelchair":"yes"}},
{"type":"Feature","geometry":{"type":"Point","coordinates":[13.3895979,52.5353146]},"properties":{"@id":4439021889,"@timestamp":1599431870,"access":"permissive","amenity":"toilets","changing_table":"yes","operator":"Gedenkstätte Berliner Mauer"}},
{"type":"Feature","geometry":{"type":"Point","coordinates":[13.4089902,52.5426851]},"properties":{"@id":4439303222,"@timestamp":1564402584,"fee":"no","fixme":"Is this still here?","amenity":"toilets"}},
{"type":"Feature","geometry":{"type":"Point","coordinates":[13.3837553,52.5065796]},"properties":{"@id":4440688190,"@timestamp":1570193708,"fee":"no","amenity":"toilets","wheelchair":"yes","changing_table":"yes","toilets:wheelchair":"yes"}},
{"type":"Feature","geometry":{"type":"Point","coordinates":[13.4426267,52.5244015]},"properties":{"@id":4497060854,"@timestamp":1580303275,"access":"customers","unisex":"yes","amenity":"toilets","operator":"Stoff und Stil","changing_table":"yes"}},
{"type":"Feature","geometry":{"type":"Point","coordinates":[13.3352905,52.5080613]},"properties":{"@id":4569218978,"@timestamp":1602240641,"amenity":"toilets","fee":"no","toilets:wheelchair":"yes","wheelchair":"yes"}},
{"type":"Feature","geometry":{"type":"Point","coordinates":[13.4194204,52.5337883]},"properties":{"@id":4571077590,"@timestamp":1482628462,"amenity":"toilets"}},
{"type":"Feature","geometry":{"type":"Point","coordinates":[13.3852208,52.4702313]},"properties":{"@id":4678898865,"@timestamp":1526657041,"fee":"yes","name":"City Toilette","unisex":"yes","amenity":"toilets","operator":"Wall GmbH","centralkey":"eurokey","wheelchair":"yes","opening_hours":"24/7","toilets:wheelchair":"yes"}},
{"type":"Feature","geometry":{"type":"Point","coordinates":[13.5040252,52.4621098]},"properties":{"@id":4686690326,"@timestamp":1600943989,"access":"yes","amenity":"toilets","changing_table":"yes","operator":"Bauhaus","toilets:disposal":"flush","unisex":"yes"}},
{"type":"Feature","geometry":{"type":"Point","coordinates":[13.5214785,52.4974302]},"properties":{"@id":4709412192,"@timestamp":1550832086,"amenity":"toilets","wheelchair":"yes"}},
{"type":"Feature","geometry":{"type":"Point","coordinates":[13.521265,52.4972503]},"properties":{"@id":4727301692,"@timestamp":1574937603,"amenity":"toilets","wheelchair":"yes"}},
{"type":"Feature","geometry":{"type":"Point","coordinates":[13.3246429,52.5119671]},"properties":{"@id":4751634622,"@timestamp":1574702663,"fee":"no","amenity":"toilets","wheelchair":"no"}},
{"type":"Feature","geometry":{"type":"Point","coordinates":[13.4223052,52.5032102]},"properties":{"@id":4756851873,"@timestamp":1490559908,"fee":"no","unisex":"yes","amenity":"toilets","toilets:disposal":"flush"}},
{"type":"Feature","geometry":{"type":"Point","coordinates":[13.3427221,52.5257159]},"properties":{"@id":4761858226,"@timestamp":1586627254,"fee":"no","male":"yes","female":"no","amenity":"toilets","wheelchair":"no","changing_table":"no","toilets:position":"urinal"}},
{"type":"Feature","geometry":{"type":"Point","coordinates":[13.348361,52.5140625]},"properties":{"@id":4776824885,"@timestamp":1536942588,"fee":"no","male":"yes","amenity":"toilets","wheelchair":"no","opening_hours":"10:00-18:30"}},
{"type":"Feature","geometry":{"type":"Point","coordinates":[13.3484613,52.5140718]},"properties":{"@id":4776824886,"@timestamp":1536942591,"fee":"no","female":"yes","amenity":"toilets","wheelchair":"no","opening_hours":"10:00-18:30"}},
{"type":"Feature","geometry":{"type":"Point","coordinates":[13.2830296,52.5906991]},"properties":{"@id":4789943507,"@timestamp":1606376734,"access":"yes","amenity":"toilets","changing_table":"no","fee":"no","male":"yes","toilets:position":"urinal","wheelchair":"no"}},
{"type":"Feature","geometry":{"type":"Point","coordinates":[13.2821064,52.5903218]},"properties":{"@id":4789943508,"@timestamp":1492002211,"fee":"yes","access":"customers","unisex":"yes","amenity":"toilets","operator":"C&A","wheelchair":"yes"}},
{"type":"Feature","geometry":{"type":"Point","coordinates":[13.2860595,52.5840591]},"properties":{"@id":4789979548,"@timestamp":1492003005,"fee":"yes","male":"yes","access":"customers","female":"yes","amenity":"toilets","toilets:disposal":"flush"}},
{"type":"Feature","geometry":{"type":"Point","coordinates":[13.3557103,52.4592631]},"properties":{"@id":4812165022,"@timestamp":1579098748,"fee":"yes","unisex":"yes","amenity":"toilets","operator":"Wall GmbH","wheelchair":"yes","description":"Berliner Toilette","payment:visa":"yes","payment:coins":"yes","changing_table":"yes","toilets:disposal":"flush","toilets:wheelchair":"yes"}},
{"type":"Feature","geometry":{"type":"Point","coordinates":[13.4126228,52.5385085]},"properties":{"@id":4903790021,"@timestamp":1496923832,"amenity":"toilets"}},
{"type":"Feature","geometry":{"type":"Point","coordinates":[13.3100622,52.5079985]},"properties":{"@id":4938849683,"@timestamp":1555829938,"access":"no","amenity":"toilets","toilets:wheelchair":"no"}},
{"type":"Feature","geometry":{"type":"Point","coordinates":[13.3646383,52.5191343]},"properties":{"@id":5022093422,"@timestamp":1540456379,"amenity":"toilets","wheelchair":"yes","toilets:wheelchair":"yes"}},
{"type":"Feature","geometry":{"type":"Point","coordinates":[13.2055219,52.6145301]},"properties":{"@id":5042518818,"@timestamp":1503046322,"amenity":"toilets"}},
{"type":"Feature","geometry":{"type":"Point","coordinates":[13.3905213,52.5447049]},"properties":{"@id":5047304280,"@timestamp":1599431919,"amenity":"toilets","changing_table":"yes","description":"Berliner Toilette","fee":"yes","opening_hours":"24/7","operator":"Wall GmbH","payment:coins":"yes","payment:visa":"yes","toilets:disposal":"flush","toilets:wheelchair":"yes","unisex":"yes","wheelchair":"yes"}},
{"type":"Feature","geometry":{"type":"Point","coordinates":[13.3768415,52.5003924]},"properties":{"@id":5060729822,"@timestamp":1505114974,"fee":"yes","charge":"0.50 EUR/use","amenity":"toilets","opening_hours":"24/7"}},
{"type":"Feature","geometry":{"type":"Point","coordinates":[13.2405189,52.5255222]},"properties":{"@id":5078910421,"@timestamp":1578605271,"name":"Berliner Toilette","phone":"+49 800 0925524","amenity":"toilets","website":"https://www.wall.de","addr:city":"Berlin","wheelchair":"yes","addr:street":"Hempelsteig","addr:postcode":"14052","toilets:wheelchair":"yes","wheelchair:description":"Mit Euro-Schlüssel Kostenlos. 2 Haltestangen und Notruf vorhanden"}},
{"type":"Feature","geometry":{"type":"Point","coordinates":[13.355451,52.5978982]},"properties":{"@id":5081673030,"@timestamp":1525004991,"fixme":"Bitte die Lage überprüfen.","unisex":"yes","amenity":"toilets","wheelchair":"yes","toilets:disposal":"flush","toilets:wheelchair":"yes"}},
{"type":"Feature","geometry":{"type":"Point","coordinates":[13.3886299,52.5443811]},"properties":{"@id":5095774443,"@timestamp":1505069601,"fee":"no","access":"customers","unisex":"yes","amenity":"toilets","toilets:disposal":"flush"}},
{"type":"Feature","geometry":{"type":"Point","coordinates":[13.5307386,52.4836249]},"properties":{"@id":5119478076,"@timestamp":1600944043,"amenity":"toilets","changing_table":"no","fee":"no","name":"EcoToilette","wheelchair":"yes"}},
{"type":"Feature","geometry":{"type":"Point","coordinates":[13.3436725,52.5426908]},"properties":{"@id":5165009582,"@timestamp":1548433817,"amenity":"toilets","wheelchair":"yes"}},
{"type":"Feature","geometry":{"type":"Point","coordinates":[13.3392298,52.5443178]},"properties":{"@id":5165014334,"@timestamp":1546420114,"amenity":"toilets","wheelchair":"no"}},
{"type":"Feature","geometry":{"type":"Point","coordinates":[13.5768267,52.5396699]},"properties":{"@id":5250276421,"@timestamp":1511785184,"amenity":"toilets"}},
{"type":"Feature","geometry":{"type":"Point","coordinates":[13.5703854,52.538014]},"properties":{"@id":5250276422,"@timestamp":1511785188,"amenity":"toilets"}},
{"type":"Feature","geometry":{"type":"Point","coordinates":[13.5748317,52.5397556]},"properties":{"@id":5250276621,"@timestamp":1511785187,"amenity":"toilets"}},
{"type":"Feature","geometry":{"type":"Point","coordinates":[13.3322034,52.4524606]},"properties":{"@id":5268574029,"@timestamp":1512589135,"amenity":"toilets","operator":"LPG","addr:city":"Berlin","addr:street":"Albrechtstraße","addr:postcode":"12167","addr:housenumber":"33"}},
{"type":"Feature","geometry":{"type":"Point","coordinates":[13.2893236,52.4592648]},"properties":{"@id":5272502230,"@timestamp":1553431164,"fee":"no","access":"yes","female":"yes","amenity":"toilets","disabled":"yes","wheelchair":"yes","toilets:disposal":"flush"}},
{"type":"Feature","geometry":{"type":"Point","coordinates":[13.443285,52.4813036]},"properties":{"@id":5339378086,"@timestamp":1515952007,"access":"customers","amenity":"toilets","wheelchair":"yes"}},
{"type":"Feature","geometry":{"type":"Point","coordinates":[13.4707811,52.528764]},"properties":{"@id":5368605803,"@timestamp":1517164156,"amenity":"toilets","operator":"REWE","addr:city":"Berlin","addr:street":"Anton-Saefkow-Platz","addr:postcode":"10369","addr:housenumber":"8"}},
{"type":"Feature","geometry":{"type":"Point","coordinates":[13.511022,52.6313787]},"properties":{"@id":5567268023,"@timestamp":1524245200,"amenity":"toilets","operator":"Helios Klinikum","addr:city":"Berlin","addr:street":"Schwanebecker Chaussee","addr:postcode":"13125","addr:housenumber":"50"}},
{"type":"Feature","geometry":{"type":"Point","coordinates":[13.5098302,52.4576972]},"properties":{"@id":5615530357,"@timestamp":1526234932,"amenity":"toilets","operator":"EDEKA Center Schöneweide"}},
{"type":"Feature","geometry":{"type":"Point","coordinates":[13.5081648,52.4572059]},"properties":{"@id":5615733202,"@timestamp":1547907145,"amenity":"toilets","operator":"Zentrum Schöneweide","wheelchair":"yes"}},
{"type":"Feature","geometry":{"type":"Point","coordinates":[13.5419617,52.541743]},"properties":{"@id":5615795932,"@timestamp":1526241245,"amenity":"toilets","operator":"Le Prom"}},
{"type":"Feature","geometry":{"type":"Point","coordinates":[13.5438896,52.5436289]},"properties":{"@id":5618185661,"@timestamp":1537103995,"fee":"yes","amenity":"toilets","operator":"Sanifair","wheelchair":"yes","toilets:wheelchair":"yes"}},
{"type":"Feature","geometry":{"type":"Point","coordinates":[13.5243135,52.4980131]},"properties":{"@id":5634632567,"@timestamp":1568290652,"fee":"no","male":"yes","access":"yes","female":"yes","unisex":"no","amenity":"toilets","wheelchair":"no","changing_table":"yes","drinking_water":"yes","toilets:disposal":"flush","toilets:position":"seated;urinal","changing_table:location":"dedicated_room"}},
{"type":"Feature","geometry":{"type":"Point","coordinates":[13.1188009,52.471293]},"properties":{"@id":5646294784,"@timestamp":1591300354,"unisex":"yes","amenity":"toilets","opening_hours":"Apr-Oct","toilets:disposal":"pitlatrine"}},
{"type":"Feature","geometry":{"type":"Point","coordinates":[13.2581794,52.5486791]},"properties":{"@id":5659211474,"@timestamp":1527964501,"amenity":"toilets"}},
{"type":"Feature","geometry":{"type":"Point","coordinates":[13.5747007,52.4440832]},"properties":{"@id":5660607347,"@timestamp":1606835722,"access":"yes","amenity":"toilets","fee":"yes","seamark:small_craft_facility:category":"toilets;showers","seamark:type":"small_craft_facility","toilets:wheelchair":"yes","wheelchair":"yes"}},
{"type":"Feature","geometry":{"type":"Point","coordinates":[13.3929616,52.4967964]},"properties":{"@id":5732104364,"@timestamp":1530453721,"access":"permissive","amenity":"toilets","description":"nur zugänglich, wenn die AGB geöffnet"}},
{"type":"Feature","geometry":{"type":"Point","coordinates":[13.2102508,52.4767708]},"properties":{"@id":5737653203,"@timestamp":1530659761,"unisex":"yes","amenity":"toilets","description":"Dixiklo"}},
{"type":"Feature","geometry":{"type":"Point","coordinates":[13.1981507,52.4786165]},"properties":{"@id":5737653216,"@timestamp":1530659763,"unisex":"yes","amenity":"toilets","operator":"Berliner Forsten","description":"2 Dixiklos"}},
{"type":"Feature","geometry":{"type":"Point","coordinates":[13.4235221,52.5044433]},"properties":{"@id":5774438887,"@timestamp":1532153772,"access":"customers","amenity":"toilets","operator":"Freiluftkino Kreuzberg"}},
{"type":"Feature","geometry":{"type":"Point","coordinates":[13.4111573,52.5199322]},"properties":{"@id":5792474338,"@timestamp":1532793464,"level":"1","access":"customers","amenity":"toilets","operator":"Decathlon"}},
{"type":"Feature","geometry":{"type":"Point","coordinates":[13.4112293,52.5195727]},"properties":{"@id":5792474339,"@timestamp":1532793464,"fixme":"position","access":"customers","amenity":"toilets"}},
{"type":"Feature","geometry":{"type":"Point","coordinates":[13.5377218,52.3898856]},"properties":{"@id":5813246244,"@timestamp":1533585595,"amenity":"toilets","operator":"McParking","toilets:disposal":"flush"}},
{"type":"Feature","geometry":{"type":"Point","coordinates":[13.3357616,52.4438631]},"properties":{"@id":5825165340,"@timestamp":1605352906,"amenity":"toilets","operator":"Edeka"}},
{"type":"Feature","geometry":{"type":"Point","coordinates":[13.3833003,52.5111411]},"properties":{"@id":5834648285,"@timestamp":1534414808,"fee":"yes","amenity":"toilets","fee:amount":"0.5€","wheelchair":"yes","toilets:wheelchair":"yes"}},
{"type":"Feature","geometry":{"type":"Point","coordinates":[13.3350525,52.5059204]},"properties":{"@id":5836061885,"@timestamp":1534415135,"fixme":"location","amenity":"toilets","wheelchair":"yes","toilets:access":"key","toilets:wheelchair":"yes","wheelchair:description":"Euroschlüssel"}},
{"type":"Feature","geometry":{"type":"Point","coordinates":[13.1449893,52.4730539]},"properties":{"@id":5841873608,"@timestamp":1534688679,"access":"customers","amenity":"toilets","wheelchair":"yes"}},
{"type":"Feature","geometry":{"type":"Point","coordinates":[13.1439153,52.4728191]},"properties":{"@id":5841873609,"@timestamp":1534688679,"access":"customers","amenity":"toilets"}},
{"type":"Feature","geometry":{"type":"Point","coordinates":[13.1417036,52.4726467]},"properties":{"@id":5841873611,"@timestamp":1534688679,"access":"customers","amenity":"toilets"}},
{"type":"Feature","geometry":{"type":"Point","coordinates":[13.1386174,52.4723837]},"properties":{"@id":5841873612,"@timestamp":1534688679,"access":"customers","amenity":"toilets"}},
{"type":"Feature","geometry":{"type":"Point","coordinates":[13.1393429,52.4682614]},"properties":{"@id":5841873613,"@timestamp":1534688679,"amenity":"toilets","wheelchair":"yes"}},
{"type":"Feature","geometry":{"type":"Point","coordinates":[13.2744053,52.5441639]},"properties":{"@id":5843925611,"@timestamp":1534770451,"male":"yes","amenity":"toilets"}},
{"type":"Feature","geometry":{"type":"Point","coordinates":[13.2744066,52.5435637]},"properties":{"@id":5843925612,"@timestamp":1534770451,"female":"yes","amenity":"toilets"}},
{"type":"Feature","geometry":{"type":"Point","coordinates":[13.3437228,52.5270841]},"properties":{"@id":5844370738,"@timestamp":1543827829,"level":"1","amenity":"toilets","wheelchair":"yes","toilets:wheelchair":"yes"}},
{"type":"Feature","geometry":{"type":"Point","coordinates":[13.5352259,52.433153]},"properties":{"@id":5866195018,"@timestamp":1578149510,"fee":"no","male":"yes","female":"yes","amenity":"toilets","operator":"Kaufland Adlershofer Tor","wheelchair":"yes","toilets:disposal":"flush"}},
{"type":"Feature","geometry":{"type":"Point","coordinates":[13.6252717,52.4948289]},"properties":{"@id":5871818291,"@timestamp":1551046185,"amenity":"toilets","operator":"Waldkirchhof Mahlsdorf"}},
{"type":"Feature","geometry":{"type":"Point","coordinates":[13.1911571,52.434045]},"properties":{"@id":5894774951,"@timestamp":1536513511,"fee":"yes","fixme":"Position estimated","amenity":"toilets","operator":"Sanifair"}},
{"type":"Feature","geometry":{"type":"Point","coordinates":[13.3569964,52.5561241]},"properties":{"@id":5909689841,"@timestamp":1537097985,"name":"City Toilette","amenity":"toilets"}},
{"type":"Feature","geometry":{"type":"Point","coordinates":[13.3940478,52.5324453]},"properties":{"@id":5922346301,"@timestamp":1550118452,"amenity":"toilets","opening_hours":"Mo-Th 08:00-15:00; Fr 08:00-13:00"}},
{"type":"Feature","geometry":{"type":"Point","coordinates":[13.3047676,52.4583974]},"properties":{"@id":5951752239,"@timestamp":1538579275,"fee":"no","access":"customers","unisex":"yes","amenity":"toilets","toilets:disposal":"flush"}},
{"type":"Feature","geometry":{"type":"Point","coordinates":[13.2837148,52.5914342]},"properties":{"@id":5983138546,"@timestamp":1539523801,"amenity":"toilets","operator":"FAZIT Ärztehaus"}},
{"type":"Feature","geometry":{"type":"Point","coordinates":[13.572196,52.4124736]},"properties":{"@id":6000728721,"@timestamp":1540043736,"amenity":"toilets","operator":"Bruno-Taut-Passage"}},
{"type":"Feature","geometry":{"type":"Point","coordinates":[13.3217745,52.5893343]},"properties":{"@id":6025258898,"@timestamp":1540918952,"amenity":"toilets","operator":"Städtischer Friedhof Wittenau"}},
{"type":"Feature","geometry":{"type":"Point","coordinates":[13.4934794,52.5113351]},"properties":{"@id":6106233522,"@timestamp":1543585698,"amenity":"toilets","operator":"Aral Tankstelle","wheelchair":"yes"}},
{"type":"Feature","geometry":{"type":"Point","coordinates":[13.3322768,52.5975482]},"properties":{"@id":6106250086,"@timestamp":1606376699,"amenity":"toilets","changing_table":"yes","description":"Berliner Toilette","fee":"yes","opening_hours":"24/7","operator":"Wall GmbH","payment:coins":"yes","payment:visa":"yes","toilets:disposal":"flush","toilets:wheelchair":"yes","unisex":"yes","wheelchair":"yes"}},
{"type":"Feature","geometry":{"type":"Point","coordinates":[13.5343339,52.4930248]},"properties":{"@id":6126917706,"@timestamp":1600509297,"access":"customers","amenity":"toilets","changing_table":"no","fee":"no","female":"yes","male":"yes","toilets:disposal":"flush","toilets:position":"seated","wheelchair":"no"}},
{"type":"Feature","geometry":{"type":"Point","coordinates":[13.265805,52.4559089]},"properties":{"@id":6142003831,"@timestamp":1545036821,"amenity":"toilets"}},
{"type":"Feature","geometry":{"type":"Point","coordinates":[13.3029142,52.6356486]},"properties":{"@id":6180878377,"@timestamp":1553633098,"access":"customers","amenity":"toilets","wheelchair":"no","toilets:disposal":"flush"}},
{"type":"Feature","geometry":{"type":"Point","coordinates":[13.3841346,52.5286524]},"properties":{"@id":6181021246,"@timestamp":1546525879,"fee":"no","access":"customers","unisex":"yes","amenity":"toilets"}},
{"type":"Feature","geometry":{"type":"Point","coordinates":[13.4973374,52.4995847]},"properties":{"@id":6203262068,"@timestamp":1592855234,"fee":"no","male":"yes","level":"0","access":"permissive","female":"yes","amenity":"toilets","operator":"Kaufland","wheelchair":"yes","opening_hours":"Mo-Fr 07:00-24:00; Sa 07:00-23:30","changing_table":"yes"}},
{"type":"Feature","geometry":{"type":"Point","coordinates":[13.2116255,52.5402838]},"properties":{"@id":6224644704,"@timestamp":1548065519,"amenity":"toilets"}},
{"type":"Feature","geometry":{"type":"Point","coordinates":[13.3696943,52.5413502]},"properties":{"@id":6237297445,"@timestamp":1578253934,"fee":"yes","access":"permissive","unisex":"yes","amenity":"toilets","wheelchair":"yes","description":"no water, no soap, very dirty","toilets:disposal":"flush","toilets:wheelchair":"yes"}},
{"type":"Feature","geometry":{"type":"Point","coordinates":[13.1961625,52.4781536]},"properties":{"@id":6284480285,"@timestamp":1575331151,"amenity":"toilets"}},
{"type":"Feature","geometry":{"type":"Point","coordinates":[13.1790454,52.4212874]},"properties":{"@id":6286715850,"@timestamp":1594312604,"fee":"yes","access":"yes","amenity":"toilets","website":"https://www.wc-fresh.com/standort/berlin-bahnhof-wannsee/","operator":"Hering","addr:city":"Berlin","wheelchair":"yes","addr:street":"Kronprinzessinnenweg","addr:postcode":"14109","opening_hours":"24/7","changing_table":"yes","addr:housenumber":"250","toilets:disposal":"flush","toilets:wheelchair":"yes"}},
{"type":"Feature","geometry":{"type":"Point","coordinates":[13.5145569,52.531287]},"properties":{"@id":6323984650,"@timestamp":1551988498,"fee":"no","access":"customers","amenity":"toilets"}},
{"type":"Feature","geometry":{"type":"Point","coordinates":[13.3285889,52.5627503]},"properties":{"@id":6331693120,"@timestamp":1552334433,"amenity":"toilets","operator":"Einkaufszentrum Clou"}},
{"type":"Feature","geometry":{"type":"Point","coordinates":[13.3663499,52.5462805]},"properties":{"@id":6369903405,"@timestamp":1553854562,"amenity":"toilets"}},
{"type":"Feature","geometry":{"type":"Point","coordinates":[13.5658297,52.5347186]},"properties":{"@id":6419242905,"@timestamp":1555856783,"access":"customers","amenity":"toilets"}},
{"type":"Feature","geometry":{"type":"Point","coordinates":[13.3675839,52.4910195]},"properties":{"@id":6432842006,"@timestamp":1556384499,"access":"permissive","amenity":"toilets"}},
{"type":"Feature","geometry":{"type":"Point","coordinates":[13.3663279,52.4595793]},"properties":{"@id":6457283156,"@timestamp":1587307488,"fee":"yes","unisex":"yes","amenity":"toilets","operator":"Wall GmbH","wheelchair":"yes","description":"Berliner Toilette","payment:visa":"yes","opening_hours":"24/7","payment:coins":"yes","changing_table":"yes","toilets:wheelchair":"yes"}},
{"type":"Feature","geometry":{"type":"Point","coordinates":[13.4274392,52.5272074]},"properties":{"@id":6459171117,"@timestamp":1575130507,"fee":"yes","unisex":"yes","amenity":"toilets","operator":"Wall GmbH","wheelchair":"yes","description":"Berliner Toilette","payment:visa":"yes","opening_hours":"24/7","payment:coins":"yes","changing_table":"yes","toilets:disposal":"flush","toilets:wheelchair":"yes"}},
{"type":"Feature","geometry":{"type":"Point","coordinates":[13.3251901,52.462209]},"properties":{"@id":6467060813,"@timestamp":1578852438,"fee":"yes","name":"Kunden WC","level":"-1","amenity":"toilets","opening_hours":"Mo-Sa 10:00-20:00"}},
{"type":"Feature","geometry":{"type":"Point","coordinates":[13.2466491,52.5616311]},"properties":{"@id":6481717701,"@timestamp":1558132419,"amenity":"toilets"}},
{"type":"Feature","geometry":{"type":"Point","coordinates":[13.3880719,52.4636777]},"properties":{"@id":6534003185,"@timestamp":1560012265,"amenity":"toilets","operator":"Bezirkszentralbibliothek"}},
{"type":"Feature","geometry":{"type":"Point","coordinates":[13.3237907,52.5028557]},"properties":{"@id":6534417733,"@timestamp":1560034810,"fee":"no","male":"yes","level":"-1","female":"yes","amenity":"toilets","toilets:disposal":"flush","toilets:position":"seated;urinal"}},
{"type":"Feature","geometry":{"type":"Point","coordinates":[13.3864326,52.5077451]},"properties":{"@id":6535073190,"@timestamp":1560080672,"access":"customers","amenity":"toilets"}},
{"type":"Feature","geometry":{"type":"Point","coordinates":[13.1300737,52.4451076]},"properties":{"@id":6565458385,"@timestamp":1600636883,"access":"permissive","amenity":"toilets","fee":"no","opening_hours":"Apr Fr[1] - Oct Fr[-1] Mo-Th 07:30-14:00; Apr Fr[1] - Oct Fr[-1] PH,Fr-Su 10:00-18:00"}},
{"type":"Feature","geometry":{"type":"Point","coordinates":[13.4382043,52.5415058]},"properties":{"@id":6586031267,"@timestamp":1581112243,"fee":"yes","unisex":"yes","amenity":"toilets","operator":"Wall GmbH","wheelchair":"yes","description":"Berliner Toilette","payment:visa":"yes","opening_hours":"24/7","payment:coins":"yes","changing_table":"yes","toilets:disposal":"flush","toilets:wheelchair":"yes"}},
{"type":"Feature","geometry":{"type":"Point","coordinates":[13.3879119,52.4401659]},"properties":{"@id":6586058192,"@timestamp":1606325198,"amenity":"toilets","changing_table":"yes","description":"Berliner Toilette","fee":"yes","opening_hours":"24/7","operator":"Wall GmbH","payment:coins":"yes","payment:visa":"yes","toilets:disposal":"flush","toilets:wheelchair":"yes","unisex":"yes","wheelchair":"yes"}},
{"type":"Feature","geometry":{"type":"Point","coordinates":[13.1439184,52.4537513]},"properties":{"@id":6586058193,"@timestamp":1598822645,"amenity":"toilets","changing_table":"yes","description":"Berliner Toilette","fee":"yes","opening_hours":"24/7","operator":"Wall GmbH","payment:coins":"yes","payment:visa":"yes","toilets:disposal":"flush","toilets:wheelchair":"yes","unisex":"yes","wheelchair":"yes"}},
{"type":"Feature","geometry":{"type":"Point","coordinates":[13.4942028,52.5455634]},"properties":{"@id":6586058195,"@timestamp":1601370271,"amenity":"toilets","changing_table":"yes","description":"Berliner Toilette","fee":"yes","opening_hours":"24/7","operator":"Wall GmbH","payment:coins":"yes","payment:visa":"yes","toilets:disposal":"flush","toilets:wheelchair":"yes","unisex":"yes","wheelchair":"yes"}},
{"type":"Feature","geometry":{"type":"Point","coordinates":[13.4313662,52.4789669]},"properties":{"@id":6595152133,"@timestamp":1569057205,"access":"customers","amenity":"toilets"}},
{"type":"Feature","geometry":{"type":"Point","coordinates":[13.1304565,52.4446533]},"properties":{"@id":6622008723,"@timestamp":1563349634,"access":"permissive","amenity":"toilets"}},
{"type":"Feature","geometry":{"type":"Point","coordinates":[13.2656477,52.6386691]},"properties":{"@id":6647315621,"@timestamp":1564104920,"amenity":"toilets"}},
{"type":"Feature","geometry":{"type":"Point","coordinates":[13.1804778,52.4683866]},"properties":{"@id":6649569299,"@timestamp":1564135184,"amenity":"toilets"}},
{"type":"Feature","geometry":{"type":"Point","coordinates":[13.0841441,52.41556]},"properties":{"@id":6652474301,"@timestamp":1564210763,"male":"yes","access":"customers","female":"yes","amenity":"toilets","wheelchair":"yes","drinking_water":"yes","toilets:disposal":"flush","toilets:position":"seated;urinal"}},
{"type":"Feature","geometry":{"type":"Point","coordinates":[13.1013208,52.4266353]},"properties":{"@id":6680057980,"@timestamp":1564841330,"access":"customers","amenity":"toilets"}},
{"type":"Feature","geometry":{"type":"Point","coordinates":[13.3780298,52.5172589]},"properties":{"@id":6690131845,"@timestamp":1565155393,"fee":"yes","access":"permissive","unisex":"yes","amenity":"toilets"}},
{"type":"Feature","geometry":{"type":"Point","coordinates":[13.3825788,52.5166714]},"properties":{"@id":6690131846,"@timestamp":1565155393,"fee":"yes","unisex":"yes","amenity":"toilets"}},
{"type":"Feature","geometry":{"type":"Point","coordinates":[13.3325743,52.5056921]},"properties":{"@id":6814022387,"@timestamp":1569071417,"amenity":"toilets","opening_hours":"24/7"}},
{"type":"Feature","geometry":{"type":"Point","coordinates":[13.3314083,52.5056002]},"properties":{"@id":6815883385,"@timestamp":1569172132,"amenity":"toilets","opening_hours":"Mo-Su 09:00-18:00"}},
{"type":"Feature","geometry":{"type":"Point","coordinates":[13.5892556,52.5303321]},"properties":{"@id":6832723014,"@timestamp":1569687067,"amenity":"toilets"}},
{"type":"Feature","geometry":{"type":"Point","coordinates":[13.2158314,52.4406573]},"properties":{"@id":6853055616,"@timestamp":1575632586,"fee":"no","access":"yes","unisex":"yes","amenity":"toilets","toilets:disposal":"chemical"}},
{"type":"Feature","geometry":{"type":"Point","coordinates":[13.3490991,52.4585653]},"properties":{"@id":6859379260,"@timestamp":1579096193,"fee":"yes","name":"Berliner Toilette","unisex":"yes","amenity":"toilets","operator":"Wall GmbH","wheelchair":"yes","description":"Berliner Toilette","payment:visa":"yes","payment:coins":"yes","changing_table":"yes","toilets:disposal":"flush","toilets:wheelchair":"yes"}},
{"type":"Feature","geometry":{"type":"Point","coordinates":[13.2408742,52.5254933]},"properties":{"@id":6859379262,"@timestamp":1579096193,"fee":"yes","name":"Berliner Toilette","unisex":"yes","amenity":"toilets","operator":"Wall GmbH","wheelchair":"yes","description":"Berliner Toilette","payment:visa":"yes","payment:coins":"yes","changing_table":"yes","toilets:disposal":"flush","toilets:wheelchair":"yes"}},
{"type":"Feature","geometry":{"type":"Point","coordinates":[13.3416267,52.4696434]},"properties":{"@id":6859379276,"@timestamp":1579096193,"fee":"yes","name":"Berliner Toilette","unisex":"yes","amenity":"toilets","operator":"Wall GmbH","wheelchair":"yes","description":"Berliner Toilette","payment:visa":"yes","payment:coins":"yes","changing_table":"yes","toilets:disposal":"flush","toilets:wheelchair":"yes"}},
{"type":"Feature","geometry":{"type":"Point","coordinates":[13.4135726,52.5127077]},"properties":{"@id":6859379277,"@timestamp":1579096193,"fee":"yes","name":"Berliner Toilette","unisex":"yes","amenity":"toilets","operator":"Wall GmbH","wheelchair":"yes","description":"Berliner Toilette","payment:visa":"yes","payment:coins":"yes","changing_table":"yes","toilets:disposal":"flush","toilets:wheelchair":"yes"}},
{"type":"Feature","geometry":{"type":"Point","coordinates":[13.4455693,52.5062812]},"properties":{"@id":6928778696,"@timestamp":1572387482,"level":"2","amenity":"toilets"}},
{"type":"Feature","geometry":{"type":"Point","coordinates":[13.4187626,52.54294]},"properties":{"@id":6938905137,"@timestamp":1579951426,"fee":"yes","amenity":"toilets","wheelchair":"yes"}},
{"type":"Feature","geometry":{"type":"Point","coordinates":[13.4130927,52.538293]},"properties":{"@id":6938936201,"@timestamp":1572688888,"amenity":"toilets"}},
{"type":"Feature","geometry":{"type":"Point","coordinates":[13.4381913,52.4955463]},"properties":{"@id":7042598240,"@timestamp":1575846355,"amenity":"toilets"}},
{"type":"Feature","geometry":{"type":"Point","coordinates":[13.3367118,52.5048782]},"properties":{"@id":7067306946,"@timestamp":1576693829,"fee":"yes","access":"yes","amenity":"toilets"}},
{"type":"Feature","geometry":{"type":"Point","coordinates":[13.3734636,52.5101966]},"properties":{"@id":7083941411,"@timestamp":1577283775,"fee":"yes","name":"WC","charge":"1.00EUR","amenity":"toilets","changing_table":"yes"}},
{"type":"Feature","geometry":{"type":"Point","coordinates":[13.4390728,52.4950696]},"properties":{"@id":7088504669,"@timestamp":1577456255,"fee":"yes","name":"City Toilette","amenity":"toilets"}},
{"type":"Feature","geometry":{"type":"Point","coordinates":[13.3030718,52.4526279]},"properties":{"@id":7093950006,"@timestamp":1577656437,"male":"yes","amenity":"toilets"}},
{"type":"Feature","geometry":{"type":"Point","coordinates":[13.4566214,52.5334173]},"properties":{"@id":7096084791,"@timestamp":1577724221,"amenity":"toilets"}},
{"type":"Feature","geometry":{"type":"Point","coordinates":[13.3020763,52.4556326]},"properties":{"@id":7125771763,"@timestamp":1601237998,"amenity":"toilets","disused":"yes","male":"yes"}},
{"type":"Feature","geometry":{"type":"Point","coordinates":[13.207764,52.5373511]},"properties":{"@id":7133014683,"@timestamp":1579186440,"fee":"yes","unisex":"yes","amenity":"toilets","operator":"Wall GmbH","wheelchair":"yes","payment:app":"yes","payment:visa":"yes","payment:coins":"yes","changing_table":"yes","toilets:disposal":"flush"}},
{"type":"Feature","geometry":{"type":"Point","coordinates":[13.6493299,52.375817]},"properties":{"@id":7133149036,"@timestamp":1579186409,"fee":"yes","unisex":"yes","amenity":"toilets","operator":"Wall GmbH","wheelchair":"yes","payment:app":"yes","payment:visa":"yes","payment:coins":"yes","changing_table":"yes","toilets:disposal":"flush"}},
{"type":"Feature","geometry":{"type":"Point","coordinates":[13.4039286,52.5699588]},"properties":{"@id":7176856819,"@timestamp":1580552157,"fee":"yes","level":"-1","amenity":"toilets","changing_table":"yes","toilets:wheelchair":"yes"}},
{"type":"Feature","geometry":{"type":"Point","coordinates":[13.4510432,52.4539144]},"properties":{"@id":7243624353,"@timestamp":1582730104,"access":"yes","amenity":"toilets"}},
{"type":"Feature","geometry":{"type":"Point","coordinates":[13.3891946,52.4902553]},"properties":{"@id":7250781585,"@timestamp":1582903091,"amenity":"toilets"}},
{"type":"Feature","geometry":{"type":"Point","coordinates":[13.3721836,52.5571089]},"properties":{"@id":7252660652,"@timestamp":1601471033,"access":"yes","amenity":"toilets","fee":"no","female":"yes","male":"yes","opening_hours":"24/7","wheelchair":"no"}},
{"type":"Feature","geometry":{"type":"Point","coordinates":[13.491681,52.4595927]},"properties":{"@id":7391744622,"@timestamp":1586600018,"amenity":"toilets"}},
{"type":"Feature","geometry":{"type":"Point","coordinates":[13.4914507,52.459831]},"properties":{"@id":7391744623,"@timestamp":1586600018,"amenity":"toilets"}},
{"type":"Feature","geometry":{"type":"Point","coordinates":[13.6752802,52.4068886]},"properties":{"@id":7399445229,"@timestamp":1586805463,"amenity":"toilets"}},
{"type":"Feature","geometry":{"type":"Point","coordinates":[13.3228349,52.4758134]},"properties":{"@id":7403285554,"@timestamp":1607243845,"amenity":"toilets","fee":"no","wheelchair":"no"}},
{"type":"Feature","geometry":{"type":"Point","coordinates":[13.3609698,52.4544317]},"properties":{"@id":7417974709,"@timestamp":1587246703,"amenity":"toilets"}},
{"type":"Feature","geometry":{"type":"Point","coordinates":[13.3101564,52.4440301]},"properties":{"@id":7427621843,"@timestamp":1587415585,"amenity":"toilets"}},
{"type":"Feature","geometry":{"type":"Point","coordinates":[13.2964077,52.4234445]},"properties":{"@id":7445263877,"@timestamp":1593617199,"male":"ja","female":"Ja","amenity":"toilets","wheelchair":"yes"}},
{"type":"Feature","geometry":{"type":"Point","coordinates":[13.2087472,52.4253838]},"properties":{"@id":7473671653,"@timestamp":1588429151,"amenity":"toilets"}},
{"type":"Feature","geometry":{"type":"Point","coordinates":[13.2548467,52.439162]},"properties":{"@id":7476117343,"@timestamp":1594379059,"female":"yes","amenity":"toilets","wheelchair":"no"}},
{"type":"Feature","geometry":{"type":"Point","coordinates":[13.2548936,52.4390956]},"properties":{"@id":7476117351,"@timestamp":1594379059,"male":"yes","amenity":"toilets","wheelchair":"no"}},
{"type":"Feature","geometry":{"type":"Point","coordinates":[13.4993487,52.5105786]},"properties":{"@id":7546377170,"@timestamp":1602968779,"amenity":"toilets","centralkey":"eurokey","changing_table":"yes","changing_table:count":"1","changing_table:fee":"no","changing_table:location":"unisex_toilet","charge":"0.50 EUR","fee":"yes","operator":"Wall GmbH","payment:visa":"yes","toilets:wheelchair":"yes","unisex":"yes","wheelchair":"yes"}},
{"type":"Feature","geometry":{"type":"Point","coordinates":[13.3460832,52.5534258]},"properties":{"@id":7609092409,"@timestamp":1591796678,"level":"1","access":"customers","amenity":"toilets","wheelchair":"yes"}},
{"type":"Feature","geometry":{"type":"Point","coordinates":[13.3536993,52.5486078]},"properties":{"@id":7616345671,"@timestamp":1592052387,"level":"1","access":"yes","amenity":"toilets","wheelchair":"yes"}},
{"type":"Feature","geometry":{"type":"Point","coordinates":[13.3297813,52.5467843]},"properties":{"@id":7617579472,"@timestamp":1592043333,"access":"yes","amenity":"toilets"}},
{"type":"Feature","geometry":{"type":"Point","coordinates":[13.425003,52.4684362]},"properties":{"@id":7762393292,"@timestamp":1596139777,"fee":"no","access":"customers","unisex":"yes","amenity":"toilets","operator":"PrinzessinnenGartenBau UG","description":"Nur während der Gartenzeiten für die Beteiligten geöffnet","drinking_water":"no","toilets:disposal":"dry_toilet"}},
{"type":"Feature","geometry":{"type":"Point","coordinates":[13.2953028,52.6164294]},"properties":{"@id":7784567593,"@timestamp":1596553261,"access":"yes","female":"yes","amenity":"toilets","toilets:disposal":"flush"}},
{"type":"Feature","geometry":{"type":"Point","coordinates":[13.2950656,52.6165397]},"properties":{"@id":7784567594,"@timestamp":1596553261,"male":"yes","access":"yes","amenity":"toilets","toilets:disposal":"flush"}},
{"type":"Feature","geometry":{"type":"Point","coordinates":[13.4588446,52.5555198]},"properties":{"@id":7798802050,"@timestamp":1601061216,"amenity":"toilets","changing_table":"yes","description":"Berliner Toilette","fee":"yes","opening_hours":"24/7","operator":"Wall GmbH","payment:coins":"yes","payment:visa":"yes","toilets:disposal":"flush","toilets:wheelchair":"yes","unisex":"yes","wheelchair":"yes"}},
{"type":"Feature","geometry":{"type":"Point","coordinates":[13.2392605,52.4962231]},"properties":{"@id":7815197918,"@timestamp":1597499230,"fee":"no","access":"customers","unisex":"yes","amenity":"toilets","toilets:type":"mobile","toilets:disposal":"flush","toilets:position":"seated"}},
{"type":"Feature","geometry":{"type":"Point","coordinates":[13.3666041,52.5454455]},"properties":{"@id":7829764992,"@timestamp":1597931364,"access":"customers","amenity":"toilets","female":"yes","level":"-1","male":"yes","wheelchair":"no"}},
{"type":"Feature","geometry":{"type":"Point","coordinates":[13.3054123,52.508525]},"properties":{"@id":7834927219,"@timestamp":1598104775,"amenity":"toilets"}},
{"type":"Feature","geometry":{"type":"Point","coordinates":[13.4958566,52.534712]},"properties":{"@id":7896808785,"@timestamp":1599826201,"amenity":"toilets","opening_hours":"Mo-Sa 07:00-20:00","operator":"Allee-Center"}},
{"type":"Feature","geometry":{"type":"Point","coordinates":[13.0940582,52.4275779]},"properties":{"@id":7923424424,"@timestamp":1600527233,"amenity":"toilets"}},
{"type":"Feature","geometry":{"type":"Point","coordinates":[13.4007025,52.5116662]},"properties":{"@id":7925669877,"@timestamp":1602334929,"amenity":"toilets","fee":"yes","wheelchair":"yes"}},
{"type":"Feature","geometry":{"type":"Point","coordinates":[13.1418683,52.5250851]},"properties":{"@id":7929121743,"@timestamp":1600779854,"amenity":"toilets","operator":"Rewe"}},
{"type":"Feature","geometry":{"type":"Point","coordinates":[13.3021163,52.4562066]},"properties":{"@id":7948796377,"@timestamp":1601237998,"amenity":"toilets","male":"yes"}},
{"type":"Feature","geometry":{"type":"Point","coordinates":[13.3021998,52.4561815]},"properties":{"@id":7948796378,"@timestamp":1601237998,"amenity":"toilets","female":"yes"}},
{"type":"Feature","geometry":{"type":"Point","coordinates":[13.3622547,52.5490248]},"properties":{"@id":7959695695,"@timestamp":1601471033,"access":"yes","amenity":"toilets","fee":"no","female":"yes","male":"yes","opening_hours":"24/7"}},
{"type":"Feature","geometry":{"type":"Point","coordinates":[13.3081277,52.4538029]},"properties":{"@id":7970041350,"@timestamp":1605906749,"amenity":"toilets"}},
{"type":"Feature","geometry":{"type":"Point","coordinates":[13.6684722,52.4471848]},"properties":{"@id":8016198975,"@timestamp":1603097389,"access":"yes","amenity":"toilets","changing_table":"no","fee":"no","female":"yes","male":"yes"}},
{"type":"Feature","geometry":{"type":"Point","coordinates":[13.3913398,52.5040594]},"properties":{"@id":8027394336,"@timestamp":1603265029,"amenity":"toilets","changing_table":"no","operator":"Wall","toilets:disposal":"flush","unisex":"yes","wheelchair":"yes"}},
{"type":"Feature","geometry":{"type":"Point","coordinates":[13.443043,52.4989701]},"properties":{"@id":8251911925,"@timestamp":1608646229,"amenity":"toilets","changing_table":"yes","charge":"0.50 EUR","description":"Berliner Toilette","fee":"yes","fee:urinal":"no","note":"2 frei zugängliche Urinale an der Süd-Ost-Seite","opening_hours":"24/7","operator":"Wall GmbH","payment:cards":"yes","payment:cash":"yes","start_date":"2020","toilets:disposal":"flush","toilets:position":"seated;urinal","toilets:wheelchair":"yes","unisex":"yes","wheelchair":"yes"}}
]}
